[
    {
        "type": "node",
        "id": 358679583,
        "lat": 33.7550283,
        "lon": -84.3716306,
        "tags": {
            "amenity": "school",
            "ele": "314",
            "gnis:county_id": "121",
            "gnis:created": "09/25/1979",
            "gnis:feature_id": "310602",
            "gnis:state_id": "13",
            "name": "Archbishop R Ryan Memorial School"
        }
    },
    {
        "type": "node",
        "id": 358782774,
        "lat": 33.7556618,
        "lon": -84.3732596,
        "tags": {
            "ele": "307",
            "gnis:county_id": "121",
            "gnis:created": "12/03/1996",
            "gnis:feature_id": "1704933",
            "gnis:state_id": "13",
            "historic": "district",
            "leisure": "park",
            "name": "Martin Luther King Junior Historic District"
        }
    },
    {
        "type": "node",
        "id": 358782809,
        "lat": 33.7551062,
        "lon": -84.3735374,
        "tags": {
            "ele": "307",
            "gnis:county_id": "121",
            "gnis:created": "12/03/1996",
            "gnis:feature_id": "1704949",
            "gnis:state_id": "13",
            "leisure": "park",
            "name": "Martin Luther King Junior National Urban Park",
            "name:etymology:wikidata": "Q8027"
        }
    },
    {
        "type": "node",
        "id": 535760911,
        "lat": 33.7465083,
        "lon": -84.3694076,
        "tags": {
            "addr:housenumber": "563",
            "addr:street": "Memorial Drive",
            "amenity": "restaurant",
            "cuisine": "noodle",
            "name": "Doc Chey's Noodle House",
            "opening_hours": "Mo-Su 11:30-22:00",
            "phone": "+1-404-688-4238",
            "website": "https://www.doccheys.com/locations/grantpark.php"
        }
    },
    {
        "type": "node",
        "id": 536669081,
        "lat": 33.7479065,
        "lon": -84.3679063,
        "tags": {
            "amenity": "restaurant",
            "name": "Agave"
        }
    },
    {
        "type": "node",
        "id": 1127168751,
        "lat": 33.7556878,
        "lon": -84.3817848,
        "tags": {
            "amenity": "restaurant",
            "cuisine": "caribbean",
            "name": "Mangos Caribbean",
            "opening_hours": "Mo-We 11:00-22:00, Th-Su 11:00-04:00"
        }
    },
    {
        "type": "node",
        "id": 1127168752,
        "lat": 33.7556908,
        "lon": -84.381305,
        "tags": {
            "amenity": "restaurant",
            "name": "Buns and Shakes"
        }
    },
    {
        "type": "node",
        "id": 1127215859,
        "lat": 33.7556502,
        "lon": -84.3811165,
        "tags": {
            "name": "Silver Moon Barber",
            "shop": "hairdresser"
        }
    },
    {
        "type": "node",
        "id": 1127215860,
        "lat": 33.7558155,
        "lon": -84.3799353,
        "tags": {
            "name": "Yanise Monet",
            "shop": "hairdresser"
        }
    },
    {
        "type": "node",
        "id": 1127215868,
        "lat": 33.755637,
        "lon": -84.3795095,
        "tags": {
            "amenity": "restaurant",
            "name": "Wok and Roll"
        }
    },
    {
        "type": "node",
        "id": 1127215870,
        "lat": 33.7556461,
        "lon": -84.3798093,
        "tags": {
            "name": "Sweet Auburn Bread",
            "shop": "bakery"
        }
    },
    {
        "type": "node",
        "id": 1127215873,
        "lat": 33.7556503,
        "lon": -84.3811971,
        "tags": {
            "name": "Sweet Auburn Grocery",
            "shop": "convenience"
        }
    },
    {
        "type": "node",
        "id": 1127215875,
        "lat": 33.7556457,
        "lon": -84.3800641,
        "tags": {
            "name": "Controversy Boutique",
            "shop": "clothes"
        }
    },
    {
        "type": "node",
        "id": 1139929635,
        "lat": 33.7556459,
        "lon": -84.3790761,
        "tags": {
            "amenity": "pub",
            "name": "Tap Out Billiards"
        }
    },
    {
        "type": "node",
        "id": 1139929639,
        "lat": 33.7556551,
        "lon": -84.3796994,
        "tags": {
            "beauty": "nails",
            "name": "Chocolate Nail Shop",
            "shop": "beauty"
        }
    },
    {
        "type": "node",
        "id": 1139929666,
        "lat": 33.7556803,
        "lon": -84.3816274,
        "tags": {
            "amenity": "bar",
            "name": "Royal Peacock Lounge",
            "opening_hours": "Fr-Su 10:00-04:00; Mo-Th off"
        }
    },
    {
        "type": "node",
        "id": 1141444131,
        "lat": 33.7497186,
        "lon": -84.3787121,
        "tags": {
            "addr:housenumber": "349",
            "addr:street": "Decatur Street",
            "amenity": "cafe",
            "cuisine": "coffee_shop",
            "name": "Marlee's Coffee and Tea"
        }
    },
    {
        "type": "node",
        "id": 1156307960,
        "lat": 33.7535544,
        "lon": -84.3845598,
        "tags": {
            "leisure": "playground",
            "name": "GSU Daycare Center"
        }
    },
    {
        "type": "node",
        "id": 1179861852,
        "lat": 33.7557832,
        "lon": -84.376726,
        "tags": {
            "name": "C J Walkers Beauty Shoppe & Museum",
            "shop": "hairdresser",
            "tourism": "museum",
            "website": "https://www.madamecjwalkermuseum.com/"
        }
    },
    {
        "type": "node",
        "id": 1179861860,
        "lat": 33.7558412,
        "lon": -84.3767207,
        "tags": {
            "name": "Burden's Barber Shop",
            "shop": "hairdresser"
        }
    },
    {
        "type": "node",
        "id": 1179861864,
        "lat": 33.7545522,
        "lon": -84.3791899,
        "tags": {
            "amenity": "restaurant",
            "bar": "yes",
            "name": "Spanish Harlem"
        }
    },
    {
        "type": "node",
        "id": 1246052475,
        "lat": 33.7544311,
        "lon": -84.3726945,
        "tags": {
            "addr:housename": "Samaritan House of Atlanta",
            "addr:housenumber": "458",
            "addr:street": "Edgewood Avenue Southeast",
            "amenity": "cafe",
            "cuisine": "american",
            "name": "Cafe 458",
            "source": "image"
        }
    },
    {
        "type": "node",
        "id": 1249461116,
        "lat": 33.7546359,
        "lon": -84.3840274,
        "tags": {
            "shop": "books"
        }
    },
    {
        "type": "node",
        "id": 1257132589,
        "lat": 33.755396,
        "lon": -84.3777699,
        "tags": {
            "historic": "monument",
            "name": "John Wesley Dobbs"
        }
    },
    {
        "type": "node",
        "id": 1573459671,
        "lat": 33.7550326,
        "lon": -84.3734149,
        "tags": {
            "historic": "memorial",
            "memorial": "tomb",
            "name": "Dr. and Mrs. King's Tomb",
            "subject:wikidata": "Q8027"
        }
    },
    {
        "type": "node",
        "id": 1973081734,
        "lat": 33.746078,
        "lon": -84.3727959,
        "tags": {
            "addr:housenumber": "437",
            "addr:postcode": "30312",
            "addr:street": "Memorial Drive Southeast",
            "amenity": "cafe",
            "internet_access": "wlan",
            "name": "The Little Tart Bakeshop",
            "old_name": "Octane Coffee",
            "opening_hours": "Mo-Fr 07:00-18:00; Sa-Su 08:00-16:00",
            "opening_hours:covid19": "Mo-Su 08:00-14:00",
            "outdoor_seating": "yes",
            "website": "https://www.littletartatl.com/location/grant-park/"
        }
    },
    {
        "type": "node",
        "id": 2288049569,
        "lat": 33.7489743,
        "lon": -84.3679405,
        "tags": {
            "addr:city": "Atlanta",
            "addr:housenumber": "208",
            "addr:postcode": "30312",
            "addr:state": "GA",
            "addr:street": "Carroll Street Southeast",
            "amenity": "restaurant",
            "cuisine": "american",
            "internet_access": "wlan",
            "internet_access:fee": "no",
            "name": "Carrol Street Cafe"
        }
    },
    {
        "type": "node",
        "id": 2626402978,
        "lat": 33.7422084,
        "lon": -84.3732891,
        "tags": {
            "name": "Loose Nuts",
            "shop": "bicycle",
            "website": "http://www.loosenutscycles.com"
        }
    },
    {
        "type": "node",
        "id": 2969376076,
        "lat": 33.7420813,
        "lon": -84.3733069,
        "tags": {
            "addr:city": "Atlanta",
            "addr:housenumber": "454",
            "addr:postcode": "30312",
            "addr:street": "Cherokee Avenue Southeast",
            "amenity": "restaurant",
            "name": "Dakota Blue"
        }
    },
    {
        "type": "node",
        "id": 3395223194,
        "lat": 33.7511907,
        "lon": -84.3854161,
        "tags": {
            "addr:city": "Atlanta",
            "addr:housenumber": "100",
            "addr:postcode": "30303",
            "addr:state": "GA",
            "addr:street": "Piedmont Avenue Southeast",
            "amenity": "restaurant",
            "cuisine": "mexican",
            "name": "Willy's Mexicana Grill",
            "wheelchair": "no"
        }
    },
    {
        "type": "node",
        "id": 3485157910,
        "lat": 33.7554483,
        "lon": -84.3828534,
        "tags": {
            "addr:city": "Atlanta",
            "addr:housenumber": "145",
            "addr:postcode": "30303",
            "addr:state": "GA",
            "addr:street": "Auburn Avenue Northeast",
            "addr:unit": "A",
            "amenity": "cafe",
            "cuisine": "coffee_shop",
            "internet_access": "yes",
            "name": "Refugee Coffee"
        }
    },
    {
        "type": "node",
        "id": 3485166783,
        "lat": 33.7554465,
        "lon": -84.3827845,
        "tags": {
            "addr:city": "Atlanta",
            "addr:housenumber": "45",
            "addr:postcode": "30303",
            "addr:state": "GA",
            "addr:street": "Auburn Avenue",
            "amenity": "cafe",
            "cuisine": "juice",
            "name": "Arden's Garden"
        }
    },
    {
        "type": "node",
        "id": 5236656422,
        "lat": 33.7422197,
        "lon": -84.3735188,
        "tags": {
            "addr:postcode": "30312-3250",
            "amenity": "restaurant",
            "cuisine": "pizza",
            "name": "Grant Central Pizza",
            "phone": "+1 404-523-8900"
        }
    },
    {
        "type": "node",
        "id": 5353831522,
        "lat": 33.7559246,
        "lon": -84.3680886,
        "tags": {
            "addr:postcode": "30312",
            "amenity": "restaurant",
            "cuisine": "sandwich",
            "email": "getfresh@lottafrutta.com",
            "name": "LottaFrutta",
            "opening_hours": "Tu-Su 12:00-17:00",
            "phone": "4045880857",
            "website": "https://www.lottafrutta.com/"
        }
    },
    {
        "type": "node",
        "id": 5353844022,
        "lat": 33.7447774,
        "lon": -84.3796009,
        "tags": {
            "addr:postcode": "30316",
            "name": "American Deli",
            "shop": "convenience"
        }
    },
    {
        "type": "node",
        "id": 5542664821,
        "lat": 33.7465407,
        "lon": -84.3707823,
        "tags": {
            "addr:housenumber": "519",
            "addr:postcode": "30312",
            "addr:street": "Memorial Drive Southeast",
            "name": "Grant Park Market",
            "shop": "convenience"
        }
    },
    {
        "type": "node",
        "id": 7101656352,
        "lat": 33.7465496,
        "lon": -84.3736541,
        "tags": {
            "addr:city": "Atlanta",
            "addr:housenumber": "421",
            "addr:postcode": "30312",
            "addr:state": "GA",
            "addr:street": "Memorial Drive Southeast",
            "amenity": "restaurant",
            "check_date": "2023-09-24",
            "email": "mailto:boss@riasbluebird.com",
            "name": "Ria's Bluebird",
            "opening_hours": "Mo,Th-Su 09:00-15:00; Tu-We off",
            "payment:mastercard": "yes",
            "payment:visa": "yes",
            "phone": "+1-404-521-3737",
            "website": "https://order.riasbluebird.com/",
            "wheelchair": "yes"
        }
    },
    {
        "type": "node",
        "id": 7101656353,
        "lat": 33.7465696,
        "lon": -84.3738821,
        "tags": {
            "addr:city": "Atlanta",
            "addr:housenumber": "415",
            "addr:postcode": "30312",
            "addr:state": "GA",
            "addr:street": "Memorial Drive Southeast",
            "amenity": "restaurant",
            "check_date": "2023-09-24",
            "cuisine": "mexican",
            "name": "Tin Lizzy's Cantina",
            "opening_hours": "Mo-Th,Su 11:00-23:00; Fr-Sa 11:00-01:00",
            "payment:mastercard": "yes",
            "payment:visa": "yes",
            "phone": "+1-404-554-8220",
            "website": "https://tinlizzyscantina.com/",
            "wheelchair": "yes"
        }
    },
    {
        "type": "node",
        "id": 7101656354,
        "lat": 33.7466321,
        "lon": -84.3727743,
        "tags": {
            "addr:housenumber": "437",
            "addr:postcode": "30312",
            "addr:state": "GA",
            "addr:street": "Memorial Drive Southeast",
            "addr:unit": "1A",
            "amenity": "restaurant",
            "check_date": "2023-09-24",
            "cuisine": "seafood",
            "email": "437party@sixfeetunder.net",
            "name": "Six Feet Under Pub & Fish House",
            "opening_hours": "Mo-Th,Su 11:00-23:00; Fr-Sa 11:00-24:00",
            "payment:mastercard": "yes",
            "payment:visa": "yes",
            "phone": "+1 404-523-6664",
            "website": "https://www.sixfeetunder.net/",
            "wheelchair": "yes"
        }
    },
    {
        "type": "node",
        "id": 7476200729,
        "lat": 33.7550753,
        "lon": -84.3793377,
        "tags": {
            "historic": "memorial",
            "inscription": "WITHIN THESE WALLS: In 1968, Hanley's Bell Street Funeral Home Was the site where the physical body of a visionary leader (Martin Luther King Jr.) prepared to be laid to rest by family and community as his soul made its journey Home.",
            "memorial": "plaque",
            "name": "Hanley's Funeral Home Historical Marker"
        }
    },
    {
        "type": "node",
        "id": 7495598472,
        "lat": 33.7556628,
        "lon": -84.383776,
        "tags": {
            "historic": "memorial",
            "memorial": "plaque",
            "name": "Alonzo Herndon"
        }
    },
    {
        "type": "node",
        "id": 7496572689,
        "lat": 33.756111,
        "lon": -84.3796194,
        "tags": {
            "ele": "307",
            "gnis:county_id": "121",
            "gnis:created": "12/03/1996",
            "gnis:feature_id": "1704967",
            "gnis:state_id": "13",
            "leisure": "park",
            "name": "Martin Luther King Junior National Historic Site"
        }
    },
    {
        "type": "node",
        "id": 7774632886,
        "lat": 33.7541678,
        "lon": -84.3669633,
        "tags": {
            "addr:housenumber": "619",
            "addr:postcode": "30312",
            "addr:street": "Edgewood Avenue Northeast",
            "amenity": "restaurant",
            "name": "planet Bombay"
        }
    },
    {
        "type": "node",
        "id": 7847578011,
        "lat": 33.7554516,
        "lon": -84.3818572,
        "tags": {
            "name": "For Keeps! Book Store",
            "shop": "books"
        }
    },
    {
        "type": "node",
        "id": 8104907874,
        "lat": 33.75394,
        "lon": -84.3845001,
        "tags": {
            "amenity": "theatre",
            "name": "Georgia State Players' Theatre"
        }
    },
    {
        "type": "node",
        "id": 8113134896,
        "lat": 33.7536441,
        "lon": -84.3845713,
        "tags": {
            "leisure": "playground"
        }
    },
    {
        "type": "node",
        "id": 8197325846,
        "lat": 33.7552117,
        "lon": -84.3734158,
        "tags": {
            "historic": "memorial",
            "name": "Eternal Flame"
        }
    },
    {
        "type": "node",
        "id": 8197438187,
        "lat": 33.7540764,
        "lon": -84.3716369,
        "tags": {
            "amenity": "bar",
            "name": "Locker Club"
        }
    },
    {
        "type": "node",
        "id": 8197438188,
        "lat": 33.7541737,
        "lon": -84.3716339,
        "tags": {
            "amenity": "bar",
            "name": "Old Fourth"
        }
    },
    {
        "type": "node",
        "id": 8197442017,
        "lat": 33.7541932,
        "lon": -84.371551,
        "tags": {
            "amenity": "bar",
            "name": "Church Annex"
        }
    },
    {
        "type": "node",
        "id": 8340377233,
        "lat": 33.749938,
        "lon": -84.3772282,
        "tags": {
            "amenity": "theatre",
            "name": "Village Theatre"
        }
    },
    {
        "type": "node",
        "id": 8340377234,
        "lat": 33.7498963,
        "lon": -84.3776844,
        "tags": {
            "name": "Ken Bailey Hair Studio",
            "shop": "hairdresser"
        }
    },
    {
        "type": "node",
        "id": 10093411941,
        "lat": 33.7521747,
        "lon": -84.3823481,
        "tags": {
            "amenity": "cafe",
            "brand": "Starbucks",
            "brand:wikidata": "Q37158",
            "contact:website": "https://www.starbucks.com/store-locator/store/1030792/secure-access-grady-hospital-80-jesse-hill-jr-dr-se-atlanta-ga-30303-us",
            "cuisine": "coffee_shop",
            "name": "Starbucks",
            "official_name": "Starbucks Coffee",
            "takeaway": "yes"
        }
    },
    {
        "type": "node",
        "id": 11230225937,
        "lat": 33.7542642,
        "lon": -84.3758902,
        "tags": {
            "addr:housenumber": "357",
            "addr:street": "Edgewood Avenue Northeast",
            "amenity": "bar",
            "name": "Noni's"
        }
    },
    {
        "type": "node",
        "id": 11289782942,
        "lat": 33.745633,
        "lon": -84.3684991,
        "tags": {
            "addr:housenumber": "580",
            "addr:street": "Woodward Avenue Southeast",
            "air_conditioning": "yes",
            "amenity": "restaurant",
            "cuisine": "filipino",
            "name": "Estrellita",
            "opening_hours": "Mo off; Tu-Sa 12:00-22:00; Su 12:00-20:00",
            "phone": "(404) 390-3038",
            "website": "https://www.estrellitafilipino.com/"
        }
    },
    {
        "type": "node",
        "id": 11314810969,
        "lat": 33.7544335,
        "lon": -84.3720279,
        "tags": {
            "addr:postcode": "30312",
            "amenity": "restaurant",
            "contact:facebook": "111255914653316",
            "contact:instagram": "thehandlebaratl",
            "cuisine": "american",
            "email": "mailto:thehandlebaratl@gmail.com",
            "name": "HandleBar",
            "opening_hours": "Mo-Sa 11:00-02:00; Su 11:00-00:00",
            "phone": "+14046002639",
            "website": "https://handlebar-atl.com/#"
        }
    },
    {
        "type": "node",
        "id": 11635666818,
        "lat": 33.7465032,
        "lon": -84.3687236,
        "tags": {
            "amenity": "restaurant",
            "check_date": "2024-02-17",
            "cuisine": "mexican",
            "name": "Mi Barrio"
        }
    },
    {
        "type": "node",
        "id": 11684875290,
        "lat": 33.7475328,
        "lon": -84.3796967,
        "tags": {
            "addr:housenumber": "240",
            "addr:street": "Martin Luther King Junior Drive Southeast",
            "amenity": "restaurant",
            "check_date": "2024-03-02",
            "cuisine": "greek",
            "email": "nicksftg@gmail.com",
            "name": "Nick's Food To Go",
            "opening_hours": "Mo-Fr 11:00-19:00; Sa-Su off",
            "phone": "+1 404-521-2220",
            "website": "https://www.nicksfood.com/"
        }
    },
    {
        "type": "way",
        "id": 23907855,
        "nodes": [
            259137807,
            7502147691,
            7502147692,
            7502147693,
            7502147694,
            7502147695,
            7502147696,
            7502120208,
            7494878163,
            7502147679,
            7502147680,
            7502147681,
            7502147682,
            7502147683,
            7502147685,
            7502147686,
            7502147687,
            7502147688,
            7502147689,
            7502147690,
            259137807
        ],
        "tags": {
            "ele": "310",
            "gnis:feature_id": "1695061",
            "leisure": "park",
            "name": "Hurt Park",
            "operator": "GSU",
            "source:ele": "USGS Geonames"
        }
    },
    {
        "type": "way",
        "id": 28798338,
        "nodes": [
            316634887,
            6939547520,
            7105320807,
            6939547519,
            316634890,
            6939547518,
            6939547521,
            6939547523,
            6939547522,
            7105320681,
            7105320673,
            7105320671,
            316636111,
            316634891,
            6939547524,
            6939547527,
            6939547526,
            6939547525,
            6939547537,
            316634892,
            7105216036,
            7104817626,
            7104817628,
            7538785191,
            7538777159,
            7538785210,
            7112602517,
            8691149274,
            8691149271,
            7112602514,
            7112602509,
            316634893,
            6939547535,
            6939547528,
            6939547529,
            561012677,
            6939547530,
            6939547574,
            6939547531,
            6939547533,
            6939547534,
            6939547532,
            561012553,
            6903520738,
            6939547543,
            316634894,
            9664352543,
            6939547545,
            561037296,
            6939547544,
            9664352542,
            6939548698,
            9664352541,
            6903520740,
            6939547547,
            6939547548,
            6939547546,
            6939547549,
            6939547550,
            6939547552,
            6939547553,
            6939547551,
            9664352540,
            6939548719,
            6939548724,
            6939547556,
            6939547557,
            6939547555,
            6939547554,
            6903520754,
            6903520743,
            6939548992,
            6903520746,
            6939548688,
            6939547583,
            316634887
        ],
        "tags": {
            "leisure": "park",
            "name": "Grant Park",
            "wikidata": "Q5596396",
            "wikipedia": "en:Grant Park, Atlanta"
        }
    },
    {
        "type": "way",
        "id": 34775427,
        "nodes": [
            8026766867,
            407912441,
            8026766870,
            8026766864,
            8026766867
        ],
        "tags": {
            "LandPro08:DE3": "UNDEVELOPABLE",
            "LandPro08:LC_NAME": "PARKS",
            "LandPro08:LU_NAME": "PARKS",
            "LandPro08:reviewed": "no",
            "leisure": "park",
            "name": "Rawson-Washington Park",
            "source": "LandPro08"
        }
    },
    {
        "type": "way",
        "id": 34775435,
        "nodes": [
            408175369,
            408175368,
            7630126526,
            408175367,
            408175366,
            7630126522,
            7630126523,
            408175365,
            408175373,
            7630126647,
            408175372,
            7630126524,
            408175371,
            7630126660,
            408175370,
            7630126525,
            408175369
        ],
        "tags": {
            "LandPro08:DE3": "UNDEVELOPABLE",
            "LandPro08:LC_NAME": "PARKS",
            "LandPro08:LU_NAME": "PARKS",
            "LandPro08:reviewed": "no",
            "leisure": "park",
            "name": "Cabbagetown Park",
            "source": "LandPro08"
        }
    },
    {
        "type": "way",
        "id": 34775443,
        "nodes": [
            3935277516,
            406202329,
            406202331,
            7996322867,
            7996322868,
            7996322869,
            7996322870,
            7996322871,
            7996322872,
            7996322873,
            7996322874,
            7996322875,
            7996322876,
            7996322877,
            7996322878,
            7996322879,
            3935277523,
            7996322818,
            6016411445,
            3935277520,
            3935277519,
            3935277518,
            3935277516
        ],
        "tags": {
            "LandPro08:DE3": "UNDEVELOPABLE",
            "LandPro08:LC_NAME": "PARKS",
            "LandPro08:LU_NAME": "PARKS",
            "LandPro08:reviewed": "no",
            "addr:city": "Atlanta",
            "addr:housenumber": "98",
            "addr:postcode": "30312",
            "addr:state": "GA",
            "addr:street": "William Holmes Borders Senior Drive Southeast",
            "ele": "305",
            "gnis:county_id": "121",
            "gnis:created": "12/03/1996",
            "gnis:feature_id": "1705138",
            "gnis:state_id": "13",
            "leisure": "park",
            "name": "Butler Park Recreation Center",
            "source": "LandPro08"
        }
    },
    {
        "type": "way",
        "id": 39448667,
        "nodes": [
            472475015,
            472475016,
            367914534,
            472475017,
            472475018,
            8113135571,
            8113135573,
            8113135572,
            472475019,
            472475015
        ],
        "tags": {
            "addr:state": "GA",
            "amenity": "marketplace",
            "building": "retail",
            "ele": "302",
            "gnis:county_name": "Fulton",
            "gnis:feature_id": "1695151",
            "name": "Atlanta Municipal Market",
            "source:ele": "USGS Geonames"
        }
    },
    {
        "type": "way",
        "id": 93729000,
        "nodes": [
            1088430465,
            1088430443,
            1088430445,
            1088430448,
            1088430465
        ],
        "tags": {
            "leisure": "pitch",
            "sport": "tennis"
        }
    },
    {
        "type": "way",
        "id": 96718870,
        "nodes": [
            1120065348,
            1120065352,
            7630142086,
            1120065345,
            1120065353,
            1120065347,
            1120065350,
            1120065346,
            1120065351,
            1120065349,
            1120065348
        ],
        "tags": {
            "leisure": "park",
            "name": "Esther Peachy Lefevre Park"
        }
    },
    {
        "type": "way",
        "id": 97333362,
        "nodes": [
            1127215885,
            1127215884,
            1127215883,
            1127215882,
            1127215881,
            1127215878,
            1127215885
        ],
        "tags": {
            "leisure": "park",
            "name": "John Calhoun Park"
        }
    },
    {
        "type": "way",
        "id": 102163020,
        "nodes": [
            1179113601,
            1179113506,
            1179113682,
            1179113659,
            1179113601
        ],
        "tags": {
            "addr:city": "Atlanta",
            "addr:housenumber": "330",
            "addr:postcode": "30312",
            "addr:street": "Edgewood Avenue Northeast",
            "amenity": "restaurant",
            "building": "yes",
            "cuisine": "american",
            "name": "Black Sheep Tavern",
            "old_name": "Eagle's Nest Community Church",
            "opening_hours": "Mo-Sa 12:00-02:30",
            "phone": "(470) 355-3964",
            "website": "https://www.blacksheeptavernatl.com/"
        }
    },
    {
        "type": "way",
        "id": 102163582,
        "nodes": [
            1179123471,
            1179123487,
            1179123482,
            1179123449,
            1179123496,
            1179123526,
            1179123504,
            1179123531,
            1179123509,
            1179123524,
            1179123443,
            1179123489,
            1179123543,
            1179123461,
            1179123495,
            1179123448,
            1179123498,
            1179123508,
            1179123456,
            1179123471
        ],
        "tags": {
            "addr:city": "Atlanta",
            "addr:housenumber": "101",
            "addr:postcode": "30303",
            "addr:street": "Auburn Avenue Northeast",
            "amenity": "library",
            "building": "library",
            "name": "Auburn Avenue Research Library",
            "phone": "+1 404 730 4001",
            "website": "http://www.afpls.org/aarl",
            "wikidata": "Q16740069",
            "wikipedia": "en:Auburn Avenue Research Library on African American Culture and History"
        }
    },
    {
        "type": "way",
        "id": 102166408,
        "nodes": [
            6014099760,
            6014099759,
            3958109677,
            6014099758,
            6014099757,
            7996307057,
            7996307074,
            8130628414,
            6014099756,
            3958109681,
            7996307068,
            7996322790,
            1179172528,
            1179172502,
            1179172532,
            1179172541,
            1179172484,
            1179172535,
            1179172561,
            1179172480,
            1179172522,
            1179172518,
            6014099760
        ],
        "tags": {
            "leisure": "park",
            "name": "J W Dobbs Plaza"
        }
    },
    {
        "type": "way",
        "id": 108653469,
        "nodes": [
            1246052477,
            1246052444,
            1246052487,
            1246052450,
            8197438181,
            1246052480,
            1246052474,
            1246052477
        ],
        "tags": {
            "addr:city": "Atlanta",
            "addr:housename": "464",
            "addr:housenumber": "462",
            "addr:postcode": "30312",
            "addr:street": "Edgewood Avenue Northeast",
            "amenity": "restaurant",
            "building": "yes",
            "building:use": "commercial",
            "cuisine": "international",
            "name": "Cafe Circa",
            "source": "image"
        }
    },
    {
        "type": "way",
        "id": 108653470,
        "nodes": [
            1246052476,
            1246052474,
            1246052480,
            1246052456,
            1246052476
        ],
        "tags": {
            "addr:city": "Atlanta",
            "addr:housenumber": "466",
            "addr:postcode": "30312",
            "addr:street": "Edgewood Avenue Southeast",
            "amenity": "bar",
            "building": "yes",
            "building:use": "commercial",
            "check_date": "2023-09-03",
            "contact:facebook": "SisterLouisasChurch",
            "contact:twitter": "sisterlouisa",
            "name": "Sister Louisa's Church of the Living Room & Ping Pong Emporium",
            "opening_hours": "Mo-Sa 17:00-03:00; Su 17:00-00:00",
            "phone": "(404) 522-8275",
            "source": "image",
            "website": "http://sisterlouisaschurch.com/"
        }
    },
    {
        "type": "way",
        "id": 108671760,
        "nodes": [
            1246335904,
            1246177707,
            8197325908,
            8197325909,
            1246177762,
            1246177746,
            1246335904
        ],
        "tags": {
            "addr:housenumber": "420",
            "addr:street": "Edgewood Avenue Southeast",
            "amenity": "bar",
            "building": "yes",
            "building:use": "commercial",
            "name": "Georgia Beer Garden",
            "source": "image"
        }
    },
    {
        "type": "way",
        "id": 108693214,
        "nodes": [
            1246335899,
            1246335908,
            1246335800,
            1246335793,
            1246335899
        ],
        "tags": {
            "building": "yes",
            "building:use": "commercial",
            "name": "GOD IS DOPE",
            "shop": "clothes",
            "source": "image"
        }
    },
    {
        "type": "way",
        "id": 108693215,
        "nodes": [
            1246335832,
            1246335810,
            1246335869,
            1246335831,
            1246335832
        ],
        "tags": {
            "building": "yes",
            "building:use": "commercial",
            "name": "Leslie's Barber Shop",
            "shop": "hairdresser",
            "source": "image"
        }
    },
    {
        "type": "way",
        "id": 108693217,
        "nodes": [
            1246335810,
            1246335908,
            1246335800,
            1246335869,
            1246335810
        ],
        "tags": {
            "amenity": "restaurant",
            "building": "yes",
            "building:use": "commercial",
            "cuisine": "seafood",
            "name": "Esco Seafood",
            "source": "image"
        }
    },
    {
        "type": "way",
        "id": 108693218,
        "nodes": [
            1246335888,
            1246335796,
            6228500505,
            1246335816,
            1246335888
        ],
        "tags": {
            "addr:city": "Atlanta",
            "addr:housenumber": "483",
            "addr:postcode": "30312",
            "addr:state": "GA",
            "addr:street": "Edgewood Avenue Southeast",
            "amenity": "bar",
            "building": "yes",
            "building:use": "commercial",
            "name": "Soundtable",
            "source": "image"
        }
    },
    {
        "type": "way",
        "id": 108693219,
        "nodes": [
            1246335819,
            1246335850,
            1246335839,
            1246335852,
            1246335874,
            1246335819
        ],
        "tags": {
            "addr:city": "Atlanta",
            "addr:housenumber": "478",
            "addr:postcode": "30312",
            "addr:street": "Edgewood Avenue Northeast",
            "amenity": "restaurant",
            "building": "yes",
            "building:use": "commercial",
            "check_date": "2023-09-03",
            "contact:facebook": "115250818500819",
            "contact:instagram": "edgewoodpizza",
            "cuisine": "pizza",
            "email": "mailto:hdeglel@gmail.com",
            "name": "Edgewood Pizzeria",
            "opening_hours": "Mo-Th 11:00-02:00; Fr-Sa 11:00-02:30; Su 11:00-00:00",
            "phone": "+14045225512",
            "source": "image",
            "website": "https://edgewoodpizzeria.com/"
        }
    },
    {
        "type": "way",
        "id": 108693220,
        "nodes": [
            1246335867,
            1246335833,
            1246335874,
            1246335852,
            1246335867
        ],
        "tags": {
            "addr:housenumber": "476",
            "addr:postcode": "30312",
            "addr:street": "Edgewood Avenue Northeast",
            "amenity": "restaurant",
            "building": "yes",
            "building:use": "commercial",
            "check_date": "2023-11-04",
            "contact:facebook": "sveganfoodtruck",
            "contact:instagram": "sluttyveganATL",
            "contact:twitter": "SLUTTYVEGANATL",
            "diet:vegan": "yes",
            "email": "mailto:ContactUs@SluttyVeganATL.com",
            "name": "Slutty Vegan Edgewood",
            "opening_hours": "Su, Tu-Th 12:00-00:00; Fr-Sa 12:00-01:00",
            "operator": "Slutty Vegan",
            "payment:cash": "no",
            "payment:mastercard": "yes",
            "payment:visa": "yes",
            "phone": "4704608344",
            "source": "image",
            "website": "https://sluttyveganatl.com/edgewood/",
            "wheelchair": "yes"
        }
    },
    {
        "type": "way",
        "id": 217822354,
        "nodes": [
            2271266463,
            2271266428,
            2271266381,
            2271266458,
            2271266392,
            2271266464,
            2271266396,
            2271266463
        ],
        "tags": {
            "leisure": "garden",
            "source": "bing_imagery"
        }
    },
    {
        "type": "way",
        "id": 217822358,
        "nodes": [
            2271266454,
            2271266445,
            2271266369,
            2271266425,
            2271266411,
            2271266429,
            2271266446,
            2271266427,
            2271266466,
            2271266375,
            2271266376,
            2271266469,
            2271266365,
            8202468524,
            2271266363,
            2271266457,
            2271266407,
            2271266403,
            8202468523,
            2271266438,
            2271266367,
            2271266454
        ],
        "tags": {
            "leisure": "garden",
            "source": "bing_imagery"
        }
    },
    {
        "type": "way",
        "id": 217822364,
        "nodes": [
            2271266418,
            2271266409,
            2271266414,
            2271266362,
            2271266418
        ],
        "tags": {
            "leisure": "garden",
            "source": "bing_imagery"
        }
    },
    {
        "type": "way",
        "id": 217822365,
        "nodes": [
            2271266412,
            2271266440,
            2271266404,
            2271266462,
            2271266412
        ],
        "tags": {
            "leisure": "garden",
            "source": "bing_imagery"
        }
    },
    {
        "type": "way",
        "id": 217823073,
        "nodes": [
            2271271845,
            2271271885,
            2271271876,
            2271271886,
            2271271867,
            2271271852,
            2271271873,
            2271271855,
            2271271869,
            2271271849,
            2271271845
        ],
        "tags": {
            "addr:city": "Atlanta",
            "addr:housenumber": "409",
            "addr:postcode": "30312",
            "addr:state": "GA",
            "addr:street": "John Wesley Dobbs Avenue Northeast",
            "amenity": "library",
            "building": "yes",
            "ele": "309",
            "gnis:county_name": "Fulton",
            "gnis:feature_id": "1704640",
            "gnis:import_uuid": "57871b70-0100-4405-bb30-88b2e001a944",
            "gnis:reviewed": "no",
            "name": "Martin Luther King Junior Branch Atlanta-Fulton Public Library",
            "name:etymology:wikidata": "Q8027",
            "source": "bing_imagery"
        }
    },
    {
        "type": "way",
        "id": 217823096,
        "nodes": [
            2271272137,
            2271272135,
            2271272136,
            2271272134,
            2271272137
        ],
        "tags": {
            "leisure": "pitch",
            "source": "bing_imagery"
        }
    },
    {
        "type": "way",
        "id": 270494123,
        "nodes": [
            2755069545,
            2755069546,
            2755069480,
            2755069478,
            2755069545
        ],
        "tags": {
            "amenity": "restaurant",
            "building": "yes",
            "name": "Staplehouse"
        }
    },
    {
        "type": "way",
        "id": 270876033,
        "nodes": [
            2758391279,
            2758391184,
            2758391182,
            2758391197,
            2758391195,
            2758391171,
            2758391170,
            2758391295,
            2758391299,
            2758391279
        ],
        "tags": {
            "addr:city": "Atlanta",
            "addr:housenumber": "14",
            "addr:postcode": "30312",
            "addr:street": "Bradley Street Southeast",
            "amenity": "restaurant",
            "building": "yes",
            "name": "Thumbs Up Diner"
        }
    },
    {
        "type": "way",
        "id": 270876296,
        "nodes": [
            2758391008,
            7996323091,
            2758391006,
            2758390975,
            2758390977,
            2758391009,
            2758391008
        ],
        "tags": {
            "addr:city": "Atlanta",
            "addr:housenumber": "569",
            "addr:postcode": "30312",
            "addr:state": "GA",
            "addr:street": "Ezzard Street Southeast",
            "air_conditioning": "yes",
            "amenity": "theatre",
            "building": "yes",
            "email": "tickets@dadsgarage.com",
            "name": "Dad's Garage",
            "phone": "+1 404 523 3141",
            "website": "https://dadsgarage.com/"
        }
    },
    {
        "type": "way",
        "id": 270876304,
        "nodes": [
            2758391291,
            2758391200,
            2758391199,
            2758391127,
            2758391129,
            2758391297,
            2758391291
        ],
        "tags": {
            "addr:city": "Atlanta",
            "addr:housenumber": "591",
            "addr:postcode": "30312",
            "addr:street": "Edgewood Avenue Southeast",
            "amenity": "restaurant",
            "building": "yes",
            "cuisine": "pizza",
            "name": "Ammazza"
        }
    },
    {
        "type": "way",
        "id": 270876314,
        "nodes": [
            2758385403,
            2758385405,
            2758385443,
            2758385445,
            2758385448,
            2758385551,
            2758385554,
            2758385615,
            2758385612,
            2758385656,
            2758385652,
            2758385594,
            2758385591,
            2758385460,
            2758385463,
            2758385398,
            2758385403
        ],
        "tags": {
            "addr:city": "Atlanta",
            "addr:housenumber": "597",
            "addr:postcode": "30316",
            "addr:street": "Gaskill Street Southeast",
            "amenity": "restaurant",
            "building": "yes",
            "name": "Agave"
        }
    },
    {
        "type": "way",
        "id": 271019839,
        "nodes": [
            2759656241,
            2759656249,
            2759656251,
            2759656225,
            2759656227,
            2759656323,
            2759656241
        ],
        "tags": {
            "addr:city": "Atlanta",
            "addr:housenumber": "264",
            "addr:postcode": "30312",
            "addr:street": "Memorial Drive Southeast",
            "amenity": "restaurant",
            "building": "yes",
            "cuisine": "barbecue",
            "name": "Daddy D'z",
            "website": "https://www.daddydz.com/"
        }
    },
    {
        "type": "way",
        "id": 271019921,
        "nodes": [
            2759655897,
            2759655891,
            2759655769,
            2759655786,
            2759655897
        ],
        "tags": {
            "addr:city": "Atlanta",
            "addr:housenumber": "304",
            "addr:postcode": "30312",
            "addr:street": "Oakland Avenue Southeast",
            "amenity": "restaurant",
            "building": "yes",
            "check_date": "2023-09-24",
            "cuisine": "mexican",
            "email": "mailto:mezcalitoscocina@gmail.com",
            "name": "Mezcalito's",
            "opening_hours": "Mo-Th,Su 11:00-22:00; Fr-Sa 11:00-22:30",
            "payment:mastercard": "yes",
            "payment:visa": "yes",
            "phone": "+1 678-705-7008",
            "website": "https://mezcalitoscocina.com/",
            "wheelchair": "yes"
        }
    },
    {
        "type": "way",
        "id": 271021522,
        "nodes": [
            2759655997,
            6933014741,
            2759656120,
            6933014742,
            6933014743,
            6933014744,
            6933014745,
            6933014746,
            6933014747,
            2759656118,
            2759655993,
            6933014748,
            6933014749,
            2759655997
        ],
        "tags": {
            "addr:city": "Atlanta",
            "addr:housenumber": "437",
            "addr:postcode": "30312",
            "addr:state": "GA",
            "addr:street": "Memorial Drive Southeast",
            "addr:unit": "C",
            "amenity": "pub",
            "building": "yes",
            "check_date": "2023-09-24",
            "name": "Republic Social House",
            "opening_hours": "Mo-We,Su 11:00-24:00; Th 11:00-01:00",
            "payment:mastercard": "yes",
            "payment:visa": "yes",
            "phone": "+1 404-577-3997",
            "website": "https://therepublicsocialhouse.com/",
            "wheelchair": "yes"
        }
    },
    {
        "type": "way",
        "id": 287304305,
        "nodes": [
            2909234611,
            2909234612,
            2909234613,
            2909234614,
            2909234611
        ],
        "tags": {
            "leisure": "pitch",
            "sport": "tennis"
        }
    },
    {
        "type": "way",
        "id": 287304306,
        "nodes": [
            2909234615,
            2909234616,
            2909234617,
            2909234618,
            2909234615
        ],
        "tags": {
            "leisure": "pitch",
            "sport": "tennis"
        }
    },
    {
        "type": "way",
        "id": 287304307,
        "nodes": [
            2909234619,
            2909234620,
            2909234621,
            2909234622,
            2909234619
        ],
        "tags": {
            "leisure": "pitch",
            "sport": "basketball"
        }
    },
    {
        "type": "way",
        "id": 307770645,
        "nodes": [
            3129742839,
            3129753001,
            3129753002,
            3129742840,
            3129742839
        ],
        "tags": {
            "addr:city": "Atlanta",
            "addr:housenumber": "584",
            "addr:postcode": "30312",
            "addr:street": "Woodward Avenue Southeast",
            "amenity": "restaurant",
            "building": "yes",
            "cuisine": "american",
            "name": "Stone Soup Kitchen",
            "opening_hours": "Mo-Fr 06:30-15:00; Sa-Su 09:30-15:00",
            "source": "Bing_Imagery; Local_Knowledge"
        }
    },
    {
        "type": "way",
        "id": 390362176,
        "nodes": [
            3935278076,
            3935278075,
            3935278072,
            3935278071,
            3935278073,
            3935278074,
            3935278076
        ],
        "tags": {
            "leisure": "playground"
        }
    },
    {
        "type": "way",
        "id": 431683059,
        "nodes": [
            4309086911,
            4309086912,
            4309086913,
            4309086914,
            4309086915,
            4309086916,
            4309086911
        ],
        "tags": {
            "addr:city": "Atlanta",
            "addr:housenumber": "427",
            "addr:state": "GA",
            "addr:street": "Edgewood Avenue Northeast",
            "amenity": "bar",
            "building": "yes",
            "name": "Joystick Game Bar",
            "wheelchair": "limited"
        }
    },
    {
        "type": "way",
        "id": 431683060,
        "nodes": [
            4309086911,
            4309086917,
            4309086921,
            4309086924,
            4309086918,
            4309086919,
            4309086920,
            4309086912,
            4309086911
        ],
        "tags": {
            "amenity": "bar",
            "building": "yes",
            "name": "Delightful Eatz"
        }
    },
    {
        "type": "way",
        "id": 431683068,
        "nodes": [
            4309086933,
            4309086935,
            4309086936,
            4309086934,
            4309086933
        ],
        "tags": {
            "addr:city": "Atlanta",
            "addr:housenumber": "16",
            "addr:postcode": "30312",
            "addr:street": "Jackson Street Southeast",
            "building": "yes",
            "name": "Atlanta Tattoo Supplies",
            "shop": "tattoo"
        }
    },
    {
        "type": "way",
        "id": 431683071,
        "nodes": [
            4309086937,
            2755067460,
            4309086940,
            4309086938,
            4309086937
        ],
        "tags": {
            "addr:city": "Atlanta",
            "addr:housenumber": "12",
            "addr:postcode": "30312",
            "addr:street": "Jackson Street Southeast",
            "building": "yes",
            "name": "The Audacity",
            "shop": "clothes"
        }
    },
    {
        "type": "way",
        "id": 431702347,
        "nodes": [
            4309301255,
            4309301256,
            4309301257,
            4309301258,
            4309301255
        ],
        "tags": {
            "amenity": "bar",
            "building": "yes",
            "name": "Clues and Cocktails"
        }
    },
    {
        "type": "way",
        "id": 431702348,
        "nodes": [
            4309301256,
            4309301259,
            4309301260,
            4309301257,
            4309301256
        ],
        "tags": {
            "building": "yes",
            "name": "Book Cafe",
            "shop": "books"
        }
    },
    {
        "type": "way",
        "id": 431702349,
        "nodes": [
            4309301259,
            4309301261,
            4309301262,
            4309301260,
            4309301259
        ],
        "tags": {
            "building": "yes",
            "name": "Auburn Discount Grocery",
            "shop": "supermarket"
        }
    },
    {
        "type": "way",
        "id": 431702351,
        "nodes": [
            4309301264,
            4309301266,
            4309301267,
            1139929638,
            4309301265,
            4309301264
        ],
        "tags": {
            "amenity": "restaurant",
            "building": "yes",
            "name": "Thelma's Kitchen"
        }
    },
    {
        "type": "way",
        "id": 431705645,
        "nodes": [
            4309353485,
            4309353486,
            4309353487,
            4309353488,
            4309353485
        ],
        "tags": {
            "amenity": "restaurant",
            "building": "yes",
            "cuisine": "jamaican",
            "name": "Foxx Jamaican"
        }
    },
    {
        "type": "way",
        "id": 431705647,
        "nodes": [
            4309354793,
            4309354794,
            4309354795,
            4309354796,
            4309354793
        ],
        "tags": {
            "building": "yes",
            "shop": "convenience"
        }
    },
    {
        "type": "way",
        "id": 470898408,
        "nodes": [
            4650774026,
            4650774029,
            4650774019,
            4650774038,
            4650774021,
            4650774033,
            4650774042,
            4650774018,
            4650774040,
            2271271863,
            2271271874,
            7649242980,
            8202468343,
            6016005650,
            4650774023,
            8228562412,
            4650774037,
            2271259086,
            8197325872,
            8197325871,
            4650774035,
            4650774025,
            4650774027,
            4650774028,
            4650774024,
            4650774032,
            4650774041,
            4650774036,
            4626827715,
            6307905780,
            7996323044,
            4626827713,
            4650774030,
            406080169,
            406080170,
            7996322817,
            4650774031,
            69292833,
            69258265,
            7996323030,
            4650774026
        ],
        "tags": {
            "boundary": "national_park",
            "communication:amateur_radio:pota": "K-0846",
            "leisure": "park",
            "name": "Martin Luther King Jr. National Historic Site",
            "name:etymology:wikidata": "Q8027"
        }
    },
    {
        "type": "way",
        "id": 474952078,
        "nodes": [
            2755069527,
            2755069565,
            8197438137,
            8197438138,
            2755069527
        ],
        "tags": {
            "addr:city": "Atlanta",
            "addr:housenumber": "381",
            "addr:postcode": "30312",
            "addr:state": "GA",
            "addr:street": "Edgewood Avenue Northeast",
            "amenity": "cafe",
            "building": "yes",
            "cuisine": "coffee_shop",
            "description": "Bike friendly cafe with outside seating.",
            "internet_access": "wlan",
            "name": "CAFE + VELO",
            "opening_hours": "Mo-Fr 08:00-17:00; Sa,Su 09:00-17:00",
            "outdoor_seating": "yes"
        }
    },
    {
        "type": "way",
        "id": 489112408,
        "nodes": [
            4813875849,
            4813875850,
            4813875851,
            4813875852,
            4813875849
        ],
        "tags": {
            "leisure": "pitch",
            "sport": "beachvolleyball",
            "surface": "sand"
        }
    },
    {
        "type": "way",
        "id": 586614408,
        "nodes": [
            5006641280,
            10158229568,
            5781330488,
            5781330490,
            10158229560,
            10158229559,
            406202451,
            406202450,
            408351671,
            408351676,
            5604434550,
            5770285653,
            9868221408,
            5604434549,
            5006641304,
            5006641305,
            5006641307,
            5604434543,
            6854507249,
            5781330475,
            2586580065,
            2586580067,
            2586580003,
            2758435589,
            2586579989,
            8109665638,
            2586579971,
            5006641309,
            5781330478,
            7501041573,
            3954061747,
            5006641314,
            5006641317,
            7847443278,
            5006641318,
            5781330469,
            5006641319,
            7502068764,
            7502068765,
            5006641320,
            10595033424,
            5781330481,
            5781330482,
            5006641280
        ],
        "tags": {
            "addr:city": "Atlanta",
            "addr:housenumber": "33",
            "addr:postcode": "30303",
            "addr:state": "GA",
            "addr:street": "Gilmer Street Southeast",
            "amenity": "university",
            "name": "Georgia State University",
            "operator": "The University System of Georgia",
            "operator:type": "public",
            "website": "https://www.gsu.edu/",
            "wikidata": "Q1509333",
            "wikipedia": "en:Georgia State University"
        }
    },
    {
        "type": "way",
        "id": 737362868,
        "nodes": [
            6903463144,
            6903463167,
            6903463145,
            6903463160,
            6903463161,
            6903463146,
            6903463147,
            6903463148,
            6903463149,
            6903463163,
            6903463150,
            6903463151,
            7703331612,
            7703331610,
            7703331606,
            7703331607,
            6903463152,
            6903463165,
            6903463164,
            6903463153,
            7703331603,
            6903463169,
            6903463168,
            7703331604,
            7703331599,
            7703331600,
            7703331602,
            7703331605,
            6903463154,
            6903463155,
            6903463156,
            6903463157,
            6903463144
        ],
        "tags": {
            "addr:city": "Atlanta",
            "addr:housenumber": "520",
            "addr:postcode": "30312",
            "addr:street": "Daniel Street Southeast",
            "barrier": "fence",
            "leisure": "dog_park",
            "name": "Fetch Park",
            "surface": "artificial_turf",
            "website": "https://www.fetchparkatl.com"
        }
    },
    {
        "type": "way",
        "id": 737362869,
        "nodes": [
            6903463158,
            6903463159,
            7703331614,
            7703331613,
            6903463158
        ],
        "tags": {
            "amenity": "bar",
            "building": "yes"
        }
    },
    {
        "type": "way",
        "id": 738377172,
        "nodes": [
            2755069498,
            2755069506,
            2755069429,
            2755069430,
            6914083814,
            2755069402,
            2755069498
        ],
        "tags": {
            "amenity": "cafe",
            "building": "yes",
            "name": "Chrome Yellow Trading Co."
        }
    },
    {
        "type": "way",
        "id": 739667246,
        "nodes": [
            6925636895,
            6925636894,
            7865831613,
            7865831612,
            6925636897,
            6925636895
        ],
        "tags": {
            "brand": "Ace Hardware",
            "brand:wikidata": "Q4672981",
            "building": "yes",
            "name": "Ace Hardware",
            "shop": "doityourself"
        }
    },
    {
        "type": "way",
        "id": 742982469,
        "nodes": [
            6955046126,
            6955046127,
            6955046128,
            6955046126
        ],
        "tags": {
            "leisure": "dog_park"
        }
    },
    {
        "type": "way",
        "id": 742982470,
        "nodes": [
            6955046129,
            6955046130,
            6955046131,
            6955046132,
            6955046129
        ],
        "tags": {
            "leisure": "dog_park"
        }
    },
    {
        "type": "way",
        "id": 801352552,
        "nodes": [
            7494806906,
            7494806907,
            7494806908,
            7494806909,
            7494806906
        ],
        "tags": {
            "access": "yes",
            "leisure": "pitch",
            "sport": "basketball"
        }
    },
    {
        "type": "way",
        "id": 801352553,
        "nodes": [
            7494806910,
            7494806911,
            7494806912,
            7494806913,
            7494806910
        ],
        "tags": {
            "access": "yes",
            "leisure": "pitch",
            "sport": "basketball"
        }
    },
    {
        "type": "way",
        "id": 801352554,
        "nodes": [
            7494806914,
            7494806915,
            7494806916,
            7494806917,
            7494806914
        ],
        "tags": {
            "leisure": "pitch",
            "sport": "tennis"
        }
    },
    {
        "type": "way",
        "id": 801352555,
        "nodes": [
            7494806921,
            8026766901,
            7494806922,
            7494806923,
            7494806924,
            7494806925,
            7494806926,
            7494806931,
            7494806927,
            7494806932,
            7494806928,
            7494806933,
            7494806929,
            7494806930,
            7494806921
        ],
        "tags": {
            "access": "yes",
            "leisure": "pitch",
            "sport": "softball"
        }
    },
    {
        "type": "way",
        "id": 801359975,
        "nodes": [
            7285629677,
            7285629678,
            7285629679,
            7285629680,
            7285629677
        ],
        "tags": {
            "leisure": "garden"
        }
    },
    {
        "type": "way",
        "id": 802210713,
        "nodes": [
            7503827445,
            7503827446,
            7503827442,
            7503827444,
            7503827445
        ],
        "tags": {
            "building": "yes",
            "shop": "convenience"
        }
    },
    {
        "type": "way",
        "id": 809862977,
        "nodes": [
            7571768695,
            7571768696,
            7571768697,
            7571768698,
            7571768695
        ],
        "tags": {
            "leisure": "pitch",
            "sport": "american_football"
        }
    },
    {
        "type": "way",
        "id": 809862985,
        "nodes": [
            7571768764,
            7571768765,
            7571768766,
            7571768767,
            7571768768,
            7571768769,
            7571768770,
            7571768771,
            7571768772,
            7571768773,
            7571768774,
            7571768775,
            7571768776,
            7571768777,
            7571768778,
            7571768779,
            7571768780,
            7571768781,
            7571768764
        ],
        "tags": {
            "leisure": "pitch",
            "sport": "baseball"
        }
    },
    {
        "type": "way",
        "id": 809862986,
        "nodes": [
            7571686184,
            7571768686,
            7571768782,
            2285000035,
            2285000038,
            2285000036,
            2285000037,
            2285000039,
            2285000042,
            7571768783,
            7571768784,
            7571768785,
            7571768786,
            7571768787,
            7571768788,
            3958109851,
            6014094969,
            6014094970,
            6014094971,
            7571686184
        ],
        "tags": {
            "landuse": "recreation_ground",
            "leisure": "park",
            "name": "Walden Athletics Complex",
            "operator": "Atlanta Public Schools"
        }
    },
    {
        "type": "way",
        "id": 816957463,
        "nodes": [
            7630142123,
            7630142124,
            7630142125,
            7630142126,
            7630142127,
            7630142128,
            7630142129,
            7630142130,
            7630142131,
            7630142132,
            7630142133,
            7630142134,
            7630142135,
            7630142136,
            7630142137,
            7630142138,
            7630142139,
            7630142140,
            7630142141,
            7630142142,
            7630142123
        ],
        "tags": {
            "leisure": "playground"
        }
    },
    {
        "type": "way",
        "id": 841048597,
        "nodes": [
            7847578040,
            7847578045,
            7847578041,
            7847578042,
            7847578043,
            7847578044,
            7847578040
        ],
        "tags": {
            "addr:city": "Atlanta",
            "addr:housenumber": "254",
            "addr:postcode": "30303",
            "addr:state": "GA",
            "addr:street": "Auburn Avenue Northeast",
            "amenity": "bar",
            "building": "yes",
            "name": "Pal's Lounge",
            "not:brand:wikidata": "Q7126094"
        }
    },
    {
        "type": "way",
        "id": 841048599,
        "nodes": [
            7847578047,
            7847578049,
            7847578050,
            7847578051,
            7847578046,
            7847578047
        ],
        "tags": {
            "abandoned": "yes",
            "amenity": "nightclub",
            "building": "yes"
        }
    },
    {
        "type": "way",
        "id": 861235958,
        "nodes": [
            8026766739,
            8026766740,
            8026766741,
            8026766742,
            8026766743,
            8026766744,
            8026766853,
            8026766854,
            8026766855,
            8026766856,
            8026766857,
            8026766858,
            8026766859,
            8026766860,
            8026766861,
            8026766862,
            8026766863,
            8026766745,
            8026766746,
            8026766747,
            8026766748,
            8026766771,
            8026766749,
            8026766750,
            8026766823,
            8026766826,
            8026766751,
            8026766752,
            8026766753,
            8026766754,
            8026766755,
            8026766756,
            8026766757,
            8026766850,
            8026766851,
            8026766758,
            8026766759,
            8026766760,
            8026766761,
            8026766762,
            8026766738,
            8026766763,
            8026766737,
            8026766764,
            8026766765,
            8026766766,
            8026766767,
            8026766768,
            8026766769,
            8026766770,
            8026766739
        ],
        "tags": {
            "access": "yes",
            "leisure": "playground",
            "playground:theme": "playground"
        }
    },
    {
        "type": "way",
        "id": 861235979,
        "nodes": [
            8026766871,
            8026766900,
            8026766893,
            8026766864,
            8026766870,
            8026766871
        ],
        "tags": {
            "amenity": "school",
            "ele": "306",
            "gnis:county_id": "121",
            "gnis:created": "09/25/1979",
            "gnis:feature_id": "312921",
            "gnis:state_id": "13",
            "name": "Wesley International Academy"
        }
    },
    {
        "type": "way",
        "id": 861236003,
        "nodes": [
            8026766977,
            8026766978,
            8026766979,
            8026766980,
            8026766977
        ],
        "tags": {
            "access": "private",
            "leisure": "playground"
        }
    },
    {
        "type": "way",
        "id": 861236072,
        "nodes": [
            8026767360,
            8026767357,
            8026767358,
            8026767353,
            8026767359,
            8026767191,
            8026767362,
            8026767363,
            8026767364,
            8026767365,
            8026767366,
            8026767361,
            8026767360
        ],
        "tags": {
            "landuse": "grass",
            "leisure": "park",
            "name": "Capital Gateway Park"
        }
    },
    {
        "type": "way",
        "id": 863050925,
        "nodes": [
            8040111015,
            8040111016,
            8040111017,
            8040111018,
            8040111015
        ],
        "tags": {
            "historic": "monument"
        }
    },
    {
        "type": "way",
        "id": 881405479,
        "nodes": [
            8197325830,
            8197325855,
            8197325828,
            8197325829,
            8197325830
        ],
        "tags": {
            "leisure": "garden"
        }
    },
    {
        "type": "way",
        "id": 881405480,
        "nodes": [
            8197325826,
            8197325827,
            8197325856,
            8197325857,
            8197325826
        ],
        "tags": {
            "leisure": "garden"
        }
    },
    {
        "type": "way",
        "id": 881405481,
        "nodes": [
            8197325853,
            8197325852,
            8197325855,
            8197325828,
            8197325827,
            8197325856,
            8197325854,
            8197325853
        ],
        "tags": {
            "leisure": "garden"
        }
    },
    {
        "type": "way",
        "id": 881405482,
        "nodes": [
            8197325852,
            1843282944,
            8197325851,
            8197325850,
            8197325849,
            8197325853,
            8197325852
        ],
        "tags": {
            "leisure": "garden"
        }
    },
    {
        "type": "way",
        "id": 881417353,
        "nodes": [
            1246335904,
            8197438119,
            8197415114,
            1246177777,
            8197415115,
            8197415116,
            8197438117,
            8197438118,
            8197325904,
            8197325908,
            8197325909,
            1246177762,
            1246177746,
            1246335904
        ],
        "tags": {
            "amenity": "biergarten"
        }
    },
    {
        "type": "way",
        "id": 881417364,
        "nodes": [
            4309353487,
            8197438147,
            8197438148,
            4309353486,
            4309353487
        ],
        "tags": {
            "building": "yes",
            "name": "Edgewood Smokes",
            "shop": "tobacco"
        }
    },
    {
        "type": "way",
        "id": 881417365,
        "nodes": [
            8197438147,
            8197438149,
            8197438150,
            8197438148,
            8197438147
        ],
        "tags": {
            "building": "yes",
            "name": "Stoney's",
            "shop": "hairdresser"
        }
    },
    {
        "type": "way",
        "id": 881635233,
        "nodes": [
            8199154377,
            8199154348,
            8199154384,
            8199154383,
            2271266398,
            2271266413,
            2271266465,
            2271266371,
            2271266430,
            8199154394,
            2271266397,
            2271266435,
            8199154382,
            8199154393,
            8199154381,
            8199154380,
            8199154377
        ],
        "tags": {
            "garden:type": "community",
            "leisure": "garden"
        }
    },
    {
        "type": "way",
        "id": 882007072,
        "nodes": [
            408347380,
            408347381,
            6016005644,
            6016005646,
            408347380
        ],
        "tags": {
            "amenity": "school",
            "name": "Howard Middle School"
        }
    },
    {
        "type": "way",
        "id": 882007092,
        "nodes": [
            8228562412,
            4650774037,
            2271259086,
            8197325872,
            2271261939,
            2271261951,
            2271261938,
            358688872,
            8228562412
        ],
        "tags": {
            "amenity": "school",
            "ele": "309",
            "gnis:feature_id": "316132",
            "name": "Hope-Hill Elementary School",
            "old_name": "John Hope School"
        }
    },
    {
        "type": "way",
        "id": 884859562,
        "nodes": [
            8228616117,
            8228616118,
            8228616119,
            8228616120,
            8228616117
        ],
        "tags": {
            "leisure": "park",
            "name": "Susan K. May Park"
        }
    },
    {
        "type": "way",
        "id": 989759871,
        "nodes": [
            9147054825,
            9147054826,
            9147054827,
            9147054828,
            9147054825
        ],
        "tags": {
            "leisure": "pitch",
            "sport": "soccer"
        }
    },
    {
        "type": "way",
        "id": 1019325143,
        "nodes": [
            9401540450,
            9401540451,
            9401540452,
            9401540453,
            9401540450
        ],
        "tags": {
            "amenity": "school",
            "name": "The New School of Atlanta"
        }
    },
    {
        "type": "way",
        "id": 1110422299,
        "nodes": [
            5006641280,
            10158229561,
            3640986675,
            3640986674,
            3640986673,
            3640986672,
            10158229562,
            10158229563,
            10158229564,
            10158229565,
            10158229566,
            10158229567,
            10158229568,
            5006641280
        ],
        "tags": {
            "amenity": "university",
            "name": "Georgia State University"
        }
    },
    {
        "type": "way",
        "id": 1206771331,
        "nodes": [
            11182424194,
            11182424195,
            11182424196,
            11182424197,
            11182424194
        ],
        "tags": {
            "leisure": "pitch"
        }
    },
    {
        "type": "way",
        "id": 1206771332,
        "nodes": [
            11182424198,
            11182424199,
            11182424200,
            11182424201,
            11182424202,
            11182424203,
            11182424204,
            11182424205,
            11182424206,
            11182424207,
            11182424198
        ],
        "tags": {
            "leisure": "playground"
        }
    },
    {
        "type": "way",
        "id": 1206771337,
        "nodes": [
            11182424871,
            11182424872,
            11182424873,
            11182424874,
            11182424875,
            11182424876,
            11182424871
        ],
        "tags": {
            "leisure": "playground"
        }
    },
    {
        "type": "way",
        "id": 1209247165,
        "nodes": [
            11203957472,
            11203957473,
            11203957474,
            11203957475,
            11203957472
        ],
        "tags": {
            "leisure": "playground"
        }
    },
    {
        "type": "node",
        "id": 8026767357,
        "lat": 33.745574,
        "lon": -84.3847042
    },
    {
        "type": "node",
        "id": 8026767360,
        "lat": 33.7443008,
        "lon": -84.3844595
    },
    {
        "type": "node",
        "id": 8026767361,
        "lat": 33.7443168,
        "lon": -84.3860408
    },
    {
        "type": "node",
        "id": 8026767362,
        "lat": 33.7438021,
        "lon": -84.3848975
    },
    {
        "type": "node",
        "id": 8026767363,
        "lat": 33.7438831,
        "lon": -84.384997
    },
    {
        "type": "node",
        "id": 8026767364,
        "lat": 33.7440526,
        "lon": -84.3854872
    },
    {
        "type": "node",
        "id": 8026767365,
        "lat": 33.7440563,
        "lon": -84.3854981
    },
    {
        "type": "node",
        "id": 8026767366,
        "lat": 33.7443396,
        "lon": -84.386208
    },
    {
        "type": "node",
        "id": 2586579971,
        "lat": 33.7535292,
        "lon": -84.3875944
    },
    {
        "type": "node",
        "id": 2586579989,
        "lat": 33.7536338,
        "lon": -84.3877523
    },
    {
        "type": "node",
        "id": 2586580003,
        "lat": 33.7537266,
        "lon": -84.3885416
    },
    {
        "type": "node",
        "id": 2586580065,
        "lat": 33.753914,
        "lon": -84.3888899
    },
    {
        "type": "node",
        "id": 2586580067,
        "lat": 33.7537441,
        "lon": -84.3886066
    },
    {
        "type": "node",
        "id": 2758435589,
        "lat": 33.753398,
        "lon": -84.3879331
    },
    {
        "type": "node",
        "id": 3954061747,
        "lat": 33.752843,
        "lon": -84.3880009
    },
    {
        "type": "node",
        "id": 4813875849,
        "lat": 33.7508672,
        "lon": -84.3864464
    },
    {
        "type": "node",
        "id": 4813875850,
        "lat": 33.7510821,
        "lon": -84.3862258
    },
    {
        "type": "node",
        "id": 4813875851,
        "lat": 33.7509713,
        "lon": -84.3860686
    },
    {
        "type": "node",
        "id": 4813875852,
        "lat": 33.7507563,
        "lon": -84.3862902
    },
    {
        "type": "node",
        "id": 5006641309,
        "lat": 33.7534642,
        "lon": -84.3874719
    },
    {
        "type": "node",
        "id": 5006641314,
        "lat": 33.7523543,
        "lon": -84.3884476
    },
    {
        "type": "node",
        "id": 5006641317,
        "lat": 33.7519832,
        "lon": -84.3879562
    },
    {
        "type": "node",
        "id": 5006641318,
        "lat": 33.7516298,
        "lon": -84.3874656
    },
    {
        "type": "node",
        "id": 5006641319,
        "lat": 33.7507208,
        "lon": -84.3862803
    },
    {
        "type": "node",
        "id": 5006641320,
        "lat": 33.7498445,
        "lon": -84.3849603
    },
    {
        "type": "node",
        "id": 5781330469,
        "lat": 33.7514723,
        "lon": -84.3873086
    },
    {
        "type": "node",
        "id": 5781330475,
        "lat": 33.7539222,
        "lon": -84.3889046
    },
    {
        "type": "node",
        "id": 5781330478,
        "lat": 33.7531238,
        "lon": -84.3877656
    },
    {
        "type": "node",
        "id": 5781330482,
        "lat": 33.7526014,
        "lon": -84.3841563
    },
    {
        "type": "node",
        "id": 6854507249,
        "lat": 33.7539454,
        "lon": -84.3889493
    },
    {
        "type": "node",
        "id": 7285629677,
        "lat": 33.7523534,
        "lon": -84.385878
    },
    {
        "type": "node",
        "id": 7285629678,
        "lat": 33.7523115,
        "lon": -84.3858192
    },
    {
        "type": "node",
        "id": 7285629679,
        "lat": 33.752188,
        "lon": -84.3859498
    },
    {
        "type": "node",
        "id": 7285629680,
        "lat": 33.7522294,
        "lon": -84.3860078
    },
    {
        "type": "node",
        "id": 7494878163,
        "lat": 33.7535844,
        "lon": -84.3853458
    },
    {
        "type": "node",
        "id": 7501041573,
        "lat": 33.7529485,
        "lon": -84.3880782
    },
    {
        "type": "node",
        "id": 7502068764,
        "lat": 33.7503052,
        "lon": -84.385651
    },
    {
        "type": "node",
        "id": 7502068765,
        "lat": 33.7501001,
        "lon": -84.3853377
    },
    {
        "type": "node",
        "id": 7502120208,
        "lat": 33.7542626,
        "lon": -84.384653
    },
    {
        "type": "node",
        "id": 7502147679,
        "lat": 33.7535974,
        "lon": -84.3853862
    },
    {
        "type": "node",
        "id": 7502147680,
        "lat": 33.7536974,
        "lon": -84.3854355
    },
    {
        "type": "node",
        "id": 7502147681,
        "lat": 33.7540527,
        "lon": -84.3859222
    },
    {
        "type": "node",
        "id": 7502147682,
        "lat": 33.7542328,
        "lon": -84.3861682
    },
    {
        "type": "node",
        "id": 7502147683,
        "lat": 33.7542488,
        "lon": -84.3861855
    },
    {
        "type": "node",
        "id": 7502147685,
        "lat": 33.7542659,
        "lon": -84.3861951
    },
    {
        "type": "node",
        "id": 7502147686,
        "lat": 33.754281,
        "lon": -84.3861991
    },
    {
        "type": "node",
        "id": 7502147687,
        "lat": 33.754316,
        "lon": -84.3862019
    },
    {
        "type": "node",
        "id": 7502147688,
        "lat": 33.7543287,
        "lon": -84.386201
    },
    {
        "type": "node",
        "id": 7502147695,
        "lat": 33.7543103,
        "lon": -84.384652
    },
    {
        "type": "node",
        "id": 7502147696,
        "lat": 33.7542873,
        "lon": -84.384649
    },
    {
        "type": "node",
        "id": 7847443278,
        "lat": 33.7517131,
        "lon": -84.3875812
    },
    {
        "type": "node",
        "id": 8109665638,
        "lat": 33.753544,
        "lon": -84.387583
    },
    {
        "type": "node",
        "id": 316634894,
        "lat": 33.7305069,
        "lon": -84.3735479
    },
    {
        "type": "node",
        "id": 561012553,
        "lat": 33.7302738,
        "lon": -84.3730079
    },
    {
        "type": "node",
        "id": 561037296,
        "lat": 33.7313906,
        "lon": -84.373549
    },
    {
        "type": "node",
        "id": 6903520738,
        "lat": 33.7302777,
        "lon": -84.3733176
    },
    {
        "type": "node",
        "id": 6903520740,
        "lat": 33.7338009,
        "lon": -84.3735519
    },
    {
        "type": "node",
        "id": 6939547543,
        "lat": 33.7304479,
        "lon": -84.3735095
    },
    {
        "type": "node",
        "id": 6939547544,
        "lat": 33.731474,
        "lon": -84.3735491
    },
    {
        "type": "node",
        "id": 6939547545,
        "lat": 33.7312992,
        "lon": -84.3735489
    },
    {
        "type": "node",
        "id": 6939547546,
        "lat": 33.7339756,
        "lon": -84.3735521
    },
    {
        "type": "node",
        "id": 6939547547,
        "lat": 33.7338868,
        "lon": -84.373552
    },
    {
        "type": "node",
        "id": 6939547548,
        "lat": 33.7339209,
        "lon": -84.3735521
    },
    {
        "type": "node",
        "id": 6939547549,
        "lat": 33.7340321,
        "lon": -84.3735522
    },
    {
        "type": "node",
        "id": 6939547550,
        "lat": 33.7341169,
        "lon": -84.3735523
    },
    {
        "type": "node",
        "id": 6939547551,
        "lat": 33.7342869,
        "lon": -84.3735525
    },
    {
        "type": "node",
        "id": 6939547552,
        "lat": 33.7341757,
        "lon": -84.3735524
    },
    {
        "type": "node",
        "id": 6939547553,
        "lat": 33.7342195,
        "lon": -84.3735524
    },
    {
        "type": "node",
        "id": 6939548698,
        "lat": 33.7324441,
        "lon": -84.3735503
    },
    {
        "type": "node",
        "id": 9664352541,
        "lat": 33.733641,
        "lon": -84.3735517
    },
    {
        "type": "node",
        "id": 9664352542,
        "lat": 33.7323592,
        "lon": -84.3735502
    },
    {
        "type": "node",
        "id": 9664352543,
        "lat": 33.7312304,
        "lon": -84.3735488
    },
    {
        "type": "node",
        "id": 6903520743,
        "lat": 33.7386924,
        "lon": -84.3735579
    },
    {
        "type": "node",
        "id": 6903520746,
        "lat": 33.7389879,
        "lon": -84.3735552
    },
    {
        "type": "node",
        "id": 6903520754,
        "lat": 33.7376906,
        "lon": -84.3735597
    },
    {
        "type": "node",
        "id": 6939547554,
        "lat": 33.7366716,
        "lon": -84.3735616
    },
    {
        "type": "node",
        "id": 6939547555,
        "lat": 33.7365666,
        "lon": -84.3735614
    },
    {
        "type": "node",
        "id": 6939547556,
        "lat": 33.7363151,
        "lon": -84.3735659
    },
    {
        "type": "node",
        "id": 6939547557,
        "lat": 33.7365124,
        "lon": -84.3735614
    },
    {
        "type": "node",
        "id": 6939547583,
        "lat": 33.7411206,
        "lon": -84.3735492
    },
    {
        "type": "node",
        "id": 6939548688,
        "lat": 33.7399286,
        "lon": -84.3735525
    },
    {
        "type": "node",
        "id": 6939548719,
        "lat": 33.7347911,
        "lon": -84.3735558
    },
    {
        "type": "node",
        "id": 6939548724,
        "lat": 33.7359529,
        "lon": -84.3735635
    },
    {
        "type": "node",
        "id": 6939548992,
        "lat": 33.7388426,
        "lon": -84.3735565
    },
    {
        "type": "node",
        "id": 9664352540,
        "lat": 33.7347568,
        "lon": -84.3735556
    },
    {
        "type": "node",
        "id": 316634893,
        "lat": 33.730347,
        "lon": -84.3684075
    },
    {
        "type": "node",
        "id": 561012677,
        "lat": 33.7302282,
        "lon": -84.3693838
    },
    {
        "type": "node",
        "id": 6939547528,
        "lat": 33.7302377,
        "lon": -84.3684542
    },
    {
        "type": "node",
        "id": 6939547529,
        "lat": 33.7302168,
        "lon": -84.3684791
    },
    {
        "type": "node",
        "id": 6939547530,
        "lat": 33.7302307,
        "lon": -84.3695868
    },
    {
        "type": "node",
        "id": 6939547531,
        "lat": 33.7302424,
        "lon": -84.3705163
    },
    {
        "type": "node",
        "id": 6939547532,
        "lat": 33.7302454,
        "lon": -84.3707496
    },
    {
        "type": "node",
        "id": 6939547533,
        "lat": 33.7302432,
        "lon": -84.3705801
    },
    {
        "type": "node",
        "id": 6939547534,
        "lat": 33.7302443,
        "lon": -84.3706664
    },
    {
        "type": "node",
        "id": 6939547535,
        "lat": 33.7302829,
        "lon": -84.3684349
    },
    {
        "type": "node",
        "id": 6939547574,
        "lat": 33.7302416,
        "lon": -84.3704541
    },
    {
        "type": "node",
        "id": 7112602509,
        "lat": 33.7305066,
        "lon": -84.3684044
    },
    {
        "type": "node",
        "id": 7112602514,
        "lat": 33.7322342,
        "lon": -84.3683713
    },
    {
        "type": "node",
        "id": 7112602517,
        "lat": 33.7340255,
        "lon": -84.3683368
    },
    {
        "type": "node",
        "id": 7538777159,
        "lat": 33.7341512,
        "lon": -84.368335
    },
    {
        "type": "node",
        "id": 7538785191,
        "lat": 33.7346515,
        "lon": -84.3683248
    },
    {
        "type": "node",
        "id": 7538785210,
        "lat": 33.7340869,
        "lon": -84.3683362
    },
    {
        "type": "node",
        "id": 8691149271,
        "lat": 33.7329175,
        "lon": -84.3683581
    },
    {
        "type": "node",
        "id": 8691149274,
        "lat": 33.7329815,
        "lon": -84.3683569
    },
    {
        "type": "node",
        "id": 316634891,
        "lat": 33.7370734,
        "lon": -84.3699686
    },
    {
        "type": "node",
        "id": 316634892,
        "lat": 33.7370176,
        "lon": -84.3682794
    },
    {
        "type": "node",
        "id": 316636111,
        "lat": 33.7371188,
        "lon": -84.3699677
    },
    {
        "type": "node",
        "id": 6939547521,
        "lat": 33.7411068,
        "lon": -84.3698868
    },
    {
        "type": "node",
        "id": 6939547522,
        "lat": 33.7410052,
        "lon": -84.3698887
    },
    {
        "type": "node",
        "id": 6939547523,
        "lat": 33.7410449,
        "lon": -84.369888
    },
    {
        "type": "node",
        "id": 6939547524,
        "lat": 33.7371006,
        "lon": -84.3697655
    },
    {
        "type": "node",
        "id": 6939547525,
        "lat": 33.7370686,
        "lon": -84.3683262
    },
    {
        "type": "node",
        "id": 6939547526,
        "lat": 33.7370801,
        "lon": -84.3683789
    },
    {
        "type": "node",
        "id": 6939547527,
        "lat": 33.7370903,
        "lon": -84.3684385
    },
    {
        "type": "node",
        "id": 6939547537,
        "lat": 33.7370519,
        "lon": -84.3683028
    },
    {
        "type": "node",
        "id": 7104817626,
        "lat": 33.7357708,
        "lon": -84.3683033
    },
    {
        "type": "node",
        "id": 7104817628,
        "lat": 33.7355885,
        "lon": -84.3683068
    },
    {
        "type": "node",
        "id": 7105216036,
        "lat": 33.7367132,
        "lon": -84.3682852
    },
    {
        "type": "node",
        "id": 7105320671,
        "lat": 33.7372358,
        "lon": -84.3699653
    },
    {
        "type": "node",
        "id": 7105320673,
        "lat": 33.7386477,
        "lon": -84.3699366
    },
    {
        "type": "node",
        "id": 7105320681,
        "lat": 33.739764,
        "lon": -84.3699139
    },
    {
        "type": "node",
        "id": 407912441,
        "lat": 33.7437235,
        "lon": -84.3814934
    },
    {
        "type": "node",
        "id": 2759656225,
        "lat": 33.7470392,
        "lon": -84.3790139
    },
    {
        "type": "node",
        "id": 2759656227,
        "lat": 33.7470401,
        "lon": -84.3790796
    },
    {
        "type": "node",
        "id": 2759656241,
        "lat": 33.7471722,
        "lon": -84.3789086
    },
    {
        "type": "node",
        "id": 2759656249,
        "lat": 33.7470791,
        "lon": -84.3789104
    },
    {
        "type": "node",
        "id": 2759656251,
        "lat": 33.7470804,
        "lon": -84.3790131
    },
    {
        "type": "node",
        "id": 2759656323,
        "lat": 33.7471744,
        "lon": -84.3790771
    },
    {
        "type": "node",
        "id": 7494806906,
        "lat": 33.7455011,
        "lon": -84.3812291
    },
    {
        "type": "node",
        "id": 7494806907,
        "lat": 33.7455017,
        "lon": -84.3813835
    },
    {
        "type": "node",
        "id": 7494806908,
        "lat": 33.7452809,
        "lon": -84.3813847
    },
    {
        "type": "node",
        "id": 7494806909,
        "lat": 33.7452803,
        "lon": -84.3812303
    },
    {
        "type": "node",
        "id": 7494806910,
        "lat": 33.7455021,
        "lon": -84.3810628
    },
    {
        "type": "node",
        "id": 7494806911,
        "lat": 33.7452791,
        "lon": -84.3810611
    },
    {
        "type": "node",
        "id": 7494806912,
        "lat": 33.7452782,
        "lon": -84.3812175
    },
    {
        "type": "node",
        "id": 7494806913,
        "lat": 33.7455013,
        "lon": -84.3812192
    },
    {
        "type": "node",
        "id": 7494806914,
        "lat": 33.7450718,
        "lon": -84.3806831
    },
    {
        "type": "node",
        "id": 7494806915,
        "lat": 33.7450715,
        "lon": -84.3808022
    },
    {
        "type": "node",
        "id": 7494806916,
        "lat": 33.744854,
        "lon": -84.3808013
    },
    {
        "type": "node",
        "id": 7494806917,
        "lat": 33.7448543,
        "lon": -84.3806822
    },
    {
        "type": "node",
        "id": 7494806921,
        "lat": 33.7439989,
        "lon": -84.3813674
    },
    {
        "type": "node",
        "id": 7494806922,
        "lat": 33.7439291,
        "lon": -84.3806536
    },
    {
        "type": "node",
        "id": 7494806923,
        "lat": 33.7439709,
        "lon": -84.3806208
    },
    {
        "type": "node",
        "id": 7494806924,
        "lat": 33.7440867,
        "lon": -84.3806111
    },
    {
        "type": "node",
        "id": 7494806925,
        "lat": 33.7442009,
        "lon": -84.3806343
    },
    {
        "type": "node",
        "id": 7494806926,
        "lat": 33.7443343,
        "lon": -84.3806981
    },
    {
        "type": "node",
        "id": 7494806927,
        "lat": 33.7444871,
        "lon": -84.380847
    },
    {
        "type": "node",
        "id": 7494806928,
        "lat": 33.7445756,
        "lon": -84.3810307
    },
    {
        "type": "node",
        "id": 7494806929,
        "lat": 33.7446109,
        "lon": -84.3812067
    },
    {
        "type": "node",
        "id": 7494806930,
        "lat": 33.7446238,
        "lon": -84.3813576
    },
    {
        "type": "node",
        "id": 7494806931,
        "lat": 33.7444156,
        "lon": -84.3807552
    },
    {
        "type": "node",
        "id": 7494806932,
        "lat": 33.744541,
        "lon": -84.3809253
    },
    {
        "type": "node",
        "id": 7494806933,
        "lat": 33.7445949,
        "lon": -84.3811149
    },
    {
        "type": "node",
        "id": 8026766737,
        "lat": 33.745017,
        "lon": -84.3810436
    },
    {
        "type": "node",
        "id": 8026766738,
        "lat": 33.7450167,
        "lon": -84.3809959
    },
    {
        "type": "node",
        "id": 8026766739,
        "lat": 33.7450011,
        "lon": -84.3813167
    },
    {
        "type": "node",
        "id": 8026766740,
        "lat": 33.7449863,
        "lon": -84.3813396
    },
    {
        "type": "node",
        "id": 8026766741,
        "lat": 33.7449708,
        "lon": -84.381355
    },
    {
        "type": "node",
        "id": 8026766742,
        "lat": 33.7449615,
        "lon": -84.3813593
    },
    {
        "type": "node",
        "id": 8026766743,
        "lat": 33.7449477,
        "lon": -84.3813593
    },
    {
        "type": "node",
        "id": 8026766744,
        "lat": 33.7449322,
        "lon": -84.3813604
    },
    {
        "type": "node",
        "id": 8026766745,
        "lat": 33.7448429,
        "lon": -84.3812537
    },
    {
        "type": "node",
        "id": 8026766746,
        "lat": 33.7448794,
        "lon": -84.3812447
    },
    {
        "type": "node",
        "id": 8026766747,
        "lat": 33.7449052,
        "lon": -84.3812441
    },
    {
        "type": "node",
        "id": 8026766748,
        "lat": 33.7449313,
        "lon": -84.3812281
    },
    {
        "type": "node",
        "id": 8026766749,
        "lat": 33.7449539,
        "lon": -84.3811999
    },
    {
        "type": "node",
        "id": 8026766750,
        "lat": 33.7449619,
        "lon": -84.3811721
    },
    {
        "type": "node",
        "id": 8026766751,
        "lat": 33.7449624,
        "lon": -84.3811433
    },
    {
        "type": "node",
        "id": 8026766752,
        "lat": 33.7449548,
        "lon": -84.3811172
    },
    {
        "type": "node",
        "id": 8026766753,
        "lat": 33.7449402,
        "lon": -84.3810943
    },
    {
        "type": "node",
        "id": 8026766754,
        "lat": 33.7449207,
        "lon": -84.3810762
    },
    {
        "type": "node",
        "id": 8026766755,
        "lat": 33.7448919,
        "lon": -84.3810703
    },
    {
        "type": "node",
        "id": 8026766756,
        "lat": 33.7448688,
        "lon": -84.3810751
    },
    {
        "type": "node",
        "id": 8026766757,
        "lat": 33.7448515,
        "lon": -84.3810703
    },
    {
        "type": "node",
        "id": 8026766758,
        "lat": 33.7448394,
        "lon": -84.3809824
    },
    {
        "type": "node",
        "id": 8026766759,
        "lat": 33.7448668,
        "lon": -84.3809466
    },
    {
        "type": "node",
        "id": 8026766760,
        "lat": 33.7449142,
        "lon": -84.3809292
    },
    {
        "type": "node",
        "id": 8026766761,
        "lat": 33.744951,
        "lon": -84.3809348
    },
    {
        "type": "node",
        "id": 8026766762,
        "lat": 33.744998,
        "lon": -84.3809626
    },
    {
        "type": "node",
        "id": 8026766763,
        "lat": 33.7450215,
        "lon": -84.3810186
    },
    {
        "type": "node",
        "id": 8026766764,
        "lat": 33.7450125,
        "lon": -84.3810662
    },
    {
        "type": "node",
        "id": 8026766765,
        "lat": 33.7450004,
        "lon": -84.3811053
    },
    {
        "type": "node",
        "id": 8026766766,
        "lat": 33.7449945,
        "lon": -84.381142
    },
    {
        "type": "node",
        "id": 8026766767,
        "lat": 33.7449941,
        "lon": -84.381191
    },
    {
        "type": "node",
        "id": 8026766768,
        "lat": 33.7449988,
        "lon": -84.3812301
    },
    {
        "type": "node",
        "id": 8026766769,
        "lat": 33.7450043,
        "lon": -84.3812641
    },
    {
        "type": "node",
        "id": 8026766770,
        "lat": 33.7450076,
        "lon": -84.3812914
    },
    {
        "type": "node",
        "id": 8026766771,
        "lat": 33.7449434,
        "lon": -84.3812168
    },
    {
        "type": "node",
        "id": 8026766823,
        "lat": 33.7449621,
        "lon": -84.3811616
    },
    {
        "type": "node",
        "id": 8026766826,
        "lat": 33.7449623,
        "lon": -84.3811486
    },
    {
        "type": "node",
        "id": 8026766850,
        "lat": 33.7448383,
        "lon": -84.3810545
    },
    {
        "type": "node",
        "id": 8026766851,
        "lat": 33.7448282,
        "lon": -84.3810171
    },
    {
        "type": "node",
        "id": 8026766853,
        "lat": 33.7449123,
        "lon": -84.3813623
    },
    {
        "type": "node",
        "id": 8026766854,
        "lat": 33.7449007,
        "lon": -84.3813684
    },
    {
        "type": "node",
        "id": 8026766855,
        "lat": 33.7448692,
        "lon": -84.3813809
    },
    {
        "type": "node",
        "id": 8026766856,
        "lat": 33.7448561,
        "lon": -84.3813792
    },
    {
        "type": "node",
        "id": 8026766857,
        "lat": 33.7448395,
        "lon": -84.3813709
    },
    {
        "type": "node",
        "id": 8026766858,
        "lat": 33.7448298,
        "lon": -84.3813605
    },
    {
        "type": "node",
        "id": 8026766859,
        "lat": 33.7448194,
        "lon": -84.381341
    },
    {
        "type": "node",
        "id": 8026766860,
        "lat": 33.7448149,
        "lon": -84.3813219
    },
    {
        "type": "node",
        "id": 8026766861,
        "lat": 33.7448173,
        "lon": -84.3812932
    },
    {
        "type": "node",
        "id": 8026766862,
        "lat": 33.7448229,
        "lon": -84.3812761
    },
    {
        "type": "node",
        "id": 8026766863,
        "lat": 33.7448336,
        "lon": -84.3812616
    },
    {
        "type": "node",
        "id": 8026766864,
        "lat": 33.7456945,
        "lon": -84.3805446
    },
    {
        "type": "node",
        "id": 8026766867,
        "lat": 33.7438782,
        "lon": -84.380561
    },
    {
        "type": "node",
        "id": 8026766870,
        "lat": 33.7456901,
        "lon": -84.3814739
    },
    {
        "type": "node",
        "id": 8026766871,
        "lat": 33.7468162,
        "lon": -84.3814859
    },
    {
        "type": "node",
        "id": 8026766893,
        "lat": 33.7464236,
        "lon": -84.3805267
    },
    {
        "type": "node",
        "id": 8026766900,
        "lat": 33.746796,
        "lon": -84.3805341
    },
    {
        "type": "node",
        "id": 8026766901,
        "lat": 33.7439557,
        "lon": -84.3813131
    },
    {
        "type": "node",
        "id": 8026766977,
        "lat": 33.7463082,
        "lon": -84.3808078
    },
    {
        "type": "node",
        "id": 8026766978,
        "lat": 33.7463077,
        "lon": -84.3806093
    },
    {
        "type": "node",
        "id": 8026766979,
        "lat": 33.7464179,
        "lon": -84.3806089
    },
    {
        "type": "node",
        "id": 8026766980,
        "lat": 33.7464184,
        "lon": -84.3808074
    },
    {
        "type": "node",
        "id": 8026767191,
        "lat": 33.7437205,
        "lon": -84.3838532
    },
    {
        "type": "node",
        "id": 8026767353,
        "lat": 33.7444485,
        "lon": -84.3838854
    },
    {
        "type": "node",
        "id": 8026767358,
        "lat": 33.7455604,
        "lon": -84.3839185
    },
    {
        "type": "node",
        "id": 8026767359,
        "lat": 33.7443137,
        "lon": -84.3838487
    },
    {
        "type": "node",
        "id": 9147054827,
        "lat": 33.7475301,
        "lon": -84.3814737
    },
    {
        "type": "node",
        "id": 9147054828,
        "lat": 33.7475216,
        "lon": -84.3808161
    },
    {
        "type": "node",
        "id": 316634887,
        "lat": 33.7415512,
        "lon": -84.373548
    },
    {
        "type": "node",
        "id": 2759655769,
        "lat": 33.7463211,
        "lon": -84.3745263
    },
    {
        "type": "node",
        "id": 2759655786,
        "lat": 33.7463243,
        "lon": -84.3747872
    },
    {
        "type": "node",
        "id": 2759655891,
        "lat": 33.7464248,
        "lon": -84.3745245
    },
    {
        "type": "node",
        "id": 2759655897,
        "lat": 33.746428,
        "lon": -84.3747853
    },
    {
        "type": "node",
        "id": 2759655993,
        "lat": 33.7465422,
        "lon": -84.3731062
    },
    {
        "type": "node",
        "id": 2759655997,
        "lat": 33.7465325,
        "lon": -84.3732737
    },
    {
        "type": "node",
        "id": 2759656118,
        "lat": 33.7465881,
        "lon": -84.3731048
    },
    {
        "type": "node",
        "id": 2759656120,
        "lat": 33.7465801,
        "lon": -84.3732833
    },
    {
        "type": "node",
        "id": 6925636895,
        "lat": 33.7466102,
        "lon": -84.3713092
    },
    {
        "type": "node",
        "id": 6925636897,
        "lat": 33.746421,
        "lon": -84.3713139
    },
    {
        "type": "node",
        "id": 6933014741,
        "lat": 33.7465799,
        "lon": -84.3732723
    },
    {
        "type": "node",
        "id": 6933014742,
        "lat": 33.7466173,
        "lon": -84.3732822
    },
    {
        "type": "node",
        "id": 6933014743,
        "lat": 33.746615,
        "lon": -84.3731739
    },
    {
        "type": "node",
        "id": 6933014744,
        "lat": 33.7465951,
        "lon": -84.3731745
    },
    {
        "type": "node",
        "id": 6933014745,
        "lat": 33.7465945,
        "lon": -84.373146
    },
    {
        "type": "node",
        "id": 6933014746,
        "lat": 33.7466006,
        "lon": -84.3731458
    },
    {
        "type": "node",
        "id": 6933014747,
        "lat": 33.7466,
        "lon": -84.3731188
    },
    {
        "type": "node",
        "id": 6933014748,
        "lat": 33.7465436,
        "lon": -84.3731725
    },
    {
        "type": "node",
        "id": 6933014749,
        "lat": 33.7465304,
        "lon": -84.3731729
    },
    {
        "type": "node",
        "id": 6939547519,
        "lat": 33.7415371,
        "lon": -84.3720849
    },
    {
        "type": "node",
        "id": 6939547520,
        "lat": 33.741542,
        "lon": -84.3725928
    },
    {
        "type": "node",
        "id": 7105320807,
        "lat": 33.7415378,
        "lon": -84.3721545
    },
    {
        "type": "node",
        "id": 367914534,
        "lat": 33.7543081,
        "lon": -84.3800395
    },
    {
        "type": "node",
        "id": 472475015,
        "lat": 33.7541599,
        "lon": -84.3804121
    },
    {
        "type": "node",
        "id": 472475016,
        "lat": 33.7543114,
        "lon": -84.3802575
    },
    {
        "type": "node",
        "id": 472475017,
        "lat": 33.7543002,
        "lon": -84.3795244
    },
    {
        "type": "node",
        "id": 472475018,
        "lat": 33.753657,
        "lon": -84.3795248
    },
    {
        "type": "node",
        "id": 472475019,
        "lat": 33.7536614,
        "lon": -84.379787
    },
    {
        "type": "node",
        "id": 5781330481,
        "lat": 33.7517743,
        "lon": -84.3830069
    },
    {
        "type": "node",
        "id": 8113135571,
        "lat": 33.7536608,
        "lon": -84.3797147
    },
    {
        "type": "node",
        "id": 8113135572,
        "lat": 33.7535955,
        "lon": -84.3797893
    },
    {
        "type": "node",
        "id": 8113135573,
        "lat": 33.7535444,
        "lon": -84.3797183
    },
    {
        "type": "node",
        "id": 9147054825,
        "lat": 33.7485811,
        "lon": -84.3807966
    },
    {
        "type": "node",
        "id": 9147054826,
        "lat": 33.7485896,
        "lon": -84.381454
    },
    {
        "type": "node",
        "id": 10595033424,
        "lat": 33.7506854,
        "lon": -84.3841091
    },
    {
        "type": "node",
        "id": 11182424194,
        "lat": 33.7480818,
        "lon": -84.3820652
    },
    {
        "type": "node",
        "id": 11182424195,
        "lat": 33.7485999,
        "lon": -84.3820546
    },
    {
        "type": "node",
        "id": 11182424196,
        "lat": 33.7485847,
        "lon": -84.3815229
    },
    {
        "type": "node",
        "id": 11182424197,
        "lat": 33.7480742,
        "lon": -84.3815305
    },
    {
        "type": "node",
        "id": 11182424198,
        "lat": 33.7506507,
        "lon": -84.3782981
    },
    {
        "type": "node",
        "id": 11182424199,
        "lat": 33.7506219,
        "lon": -84.3783298
    },
    {
        "type": "node",
        "id": 11182424200,
        "lat": 33.7505951,
        "lon": -84.3783457
    },
    {
        "type": "node",
        "id": 11182424201,
        "lat": 33.75058,
        "lon": -84.3783463
    },
    {
        "type": "node",
        "id": 11182424202,
        "lat": 33.7505461,
        "lon": -84.3783332
    },
    {
        "type": "node",
        "id": 11182424203,
        "lat": 33.7505193,
        "lon": -84.3782947
    },
    {
        "type": "node",
        "id": 11182424204,
        "lat": 33.7505372,
        "lon": -84.3782455
    },
    {
        "type": "node",
        "id": 11182424205,
        "lat": 33.7505819,
        "lon": -84.3782047
    },
    {
        "type": "node",
        "id": 11182424206,
        "lat": 33.7506168,
        "lon": -84.3782098
    },
    {
        "type": "node",
        "id": 11182424207,
        "lat": 33.7506525,
        "lon": -84.3782727
    },
    {
        "type": "node",
        "id": 11182424871,
        "lat": 33.752216,
        "lon": -84.3786871
    },
    {
        "type": "node",
        "id": 11182424872,
        "lat": 33.7523341,
        "lon": -84.3785735
    },
    {
        "type": "node",
        "id": 11182424873,
        "lat": 33.7523338,
        "lon": -84.3784946
    },
    {
        "type": "node",
        "id": 11182424874,
        "lat": 33.7522926,
        "lon": -84.3784929
    },
    {
        "type": "node",
        "id": 11182424875,
        "lat": 33.7522919,
        "lon": -84.3783636
    },
    {
        "type": "node",
        "id": 11182424876,
        "lat": 33.752211,
        "lon": -84.3783602
    },
    {
        "type": "node",
        "id": 69258265,
        "lat": 33.753804,
        "lon": -84.374377
    },
    {
        "type": "node",
        "id": 69292833,
        "lat": 33.753761,
        "lon": -84.372055
    },
    {
        "type": "node",
        "id": 406080169,
        "lat": 33.7539487,
        "lon": -84.3712231
    },
    {
        "type": "node",
        "id": 406080170,
        "lat": 33.7539406,
        "lon": -84.3715545
    },
    {
        "type": "node",
        "id": 406202329,
        "lat": 33.7523823,
        "lon": -84.3754282
    },
    {
        "type": "node",
        "id": 406202331,
        "lat": 33.7523684,
        "lon": -84.3754698
    },
    {
        "type": "node",
        "id": 1246335793,
        "lat": 33.7540855,
        "lon": -84.3727585
    },
    {
        "type": "node",
        "id": 1246335796,
        "lat": 33.7542266,
        "lon": -84.3718407
    },
    {
        "type": "node",
        "id": 1246335800,
        "lat": 33.7540845,
        "lon": -84.3728248
    },
    {
        "type": "node",
        "id": 1246335810,
        "lat": 33.7542397,
        "lon": -84.3729553
    },
    {
        "type": "node",
        "id": 1246335816,
        "lat": 33.7540176,
        "lon": -84.3717649
    },
    {
        "type": "node",
        "id": 1246335831,
        "lat": 33.7540837,
        "lon": -84.3730318
    },
    {
        "type": "node",
        "id": 1246335832,
        "lat": 33.7542426,
        "lon": -84.3730989
    },
    {
        "type": "node",
        "id": 1246335869,
        "lat": 33.7540827,
        "lon": -84.3728867
    },
    {
        "type": "node",
        "id": 1246335888,
        "lat": 33.7540187,
        "lon": -84.3718449
    },
    {
        "type": "node",
        "id": 1246335899,
        "lat": 33.7542377,
        "lon": -84.3727901
    },
    {
        "type": "node",
        "id": 1246335908,
        "lat": 33.7542385,
        "lon": -84.3728689
    },
    {
        "type": "node",
        "id": 2755067460,
        "lat": 33.754179,
        "lon": -84.3742841
    },
    {
        "type": "node",
        "id": 2755069402,
        "lat": 33.7538624,
        "lon": -84.3710759
    },
    {
        "type": "node",
        "id": 2755069498,
        "lat": 33.7540597,
        "lon": -84.3711647
    },
    {
        "type": "node",
        "id": 2755069506,
        "lat": 33.7540819,
        "lon": -84.3710603
    },
    {
        "type": "node",
        "id": 2755069527,
        "lat": 33.7541301,
        "lon": -84.3750569
    },
    {
        "type": "node",
        "id": 2755069565,
        "lat": 33.7542691,
        "lon": -84.3750567
    },
    {
        "type": "node",
        "id": 2909234611,
        "lat": 33.7535035,
        "lon": -84.376488
    },
    {
        "type": "node",
        "id": 2909234612,
        "lat": 33.753503,
        "lon": -84.3763765
    },
    {
        "type": "node",
        "id": 2909234613,
        "lat": 33.7532867,
        "lon": -84.376378
    },
    {
        "type": "node",
        "id": 2909234614,
        "lat": 33.7532872,
        "lon": -84.3764895
    },
    {
        "type": "node",
        "id": 2909234615,
        "lat": 33.7535047,
        "lon": -84.3763384
    },
    {
        "type": "node",
        "id": 2909234616,
        "lat": 33.7535047,
        "lon": -84.376219
    },
    {
        "type": "node",
        "id": 2909234617,
        "lat": 33.7532856,
        "lon": -84.376219
    },
    {
        "type": "node",
        "id": 2909234618,
        "lat": 33.7532856,
        "lon": -84.3763384
    },
    {
        "type": "node",
        "id": 2909234619,
        "lat": 33.7535338,
        "lon": -84.3761842
    },
    {
        "type": "node",
        "id": 2909234620,
        "lat": 33.7535327,
        "lon": -84.3759826
    },
    {
        "type": "node",
        "id": 2909234621,
        "lat": 33.7532574,
        "lon": -84.3759847
    },
    {
        "type": "node",
        "id": 2909234622,
        "lat": 33.7532585,
        "lon": -84.3761863
    },
    {
        "type": "node",
        "id": 3935277516,
        "lat": 33.7526553,
        "lon": -84.37553
    },
    {
        "type": "node",
        "id": 3935277518,
        "lat": 33.7528369,
        "lon": -84.3755848
    },
    {
        "type": "node",
        "id": 3935277519,
        "lat": 33.7530092,
        "lon": -84.3756199
    },
    {
        "type": "node",
        "id": 3935277520,
        "lat": 33.7531079,
        "lon": -84.3756271
    },
    {
        "type": "node",
        "id": 3935277523,
        "lat": 33.7536206,
        "lon": -84.3765894
    },
    {
        "type": "node",
        "id": 3935278071,
        "lat": 33.753078,
        "lon": -84.3763414
    },
    {
        "type": "node",
        "id": 3935278072,
        "lat": 33.7530785,
        "lon": -84.3760244
    },
    {
        "type": "node",
        "id": 3935278073,
        "lat": 33.753083,
        "lon": -84.3763487
    },
    {
        "type": "node",
        "id": 3935278074,
        "lat": 33.7530918,
        "lon": -84.3763507
    },
    {
        "type": "node",
        "id": 3935278075,
        "lat": 33.7532327,
        "lon": -84.3760211
    },
    {
        "type": "node",
        "id": 3935278076,
        "lat": 33.7532338,
        "lon": -84.3763487
    },
    {
        "type": "node",
        "id": 4309086911,
        "lat": 33.7542455,
        "lon": -84.373687
    },
    {
        "type": "node",
        "id": 4309086912,
        "lat": 33.7540667,
        "lon": -84.3736891
    },
    {
        "type": "node",
        "id": 4309086913,
        "lat": 33.7540662,
        "lon": -84.3736334
    },
    {
        "type": "node",
        "id": 4309086914,
        "lat": 33.7540494,
        "lon": -84.3736336
    },
    {
        "type": "node",
        "id": 4309086915,
        "lat": 33.7540487,
        "lon": -84.3735436
    },
    {
        "type": "node",
        "id": 4309086916,
        "lat": 33.7542443,
        "lon": -84.3735412
    },
    {
        "type": "node",
        "id": 4309086917,
        "lat": 33.7542482,
        "lon": -84.3738587
    },
    {
        "type": "node",
        "id": 4309086918,
        "lat": 33.75405,
        "lon": -84.3738607
    },
    {
        "type": "node",
        "id": 4309086919,
        "lat": 33.7540495,
        "lon": -84.3737751
    },
    {
        "type": "node",
        "id": 4309086920,
        "lat": 33.7540661,
        "lon": -84.373775
    },
    {
        "type": "node",
        "id": 4309086921,
        "lat": 33.7542393,
        "lon": -84.3738588
    },
    {
        "type": "node",
        "id": 4309086924,
        "lat": 33.7541386,
        "lon": -84.3738598
    },
    {
        "type": "node",
        "id": 4309086933,
        "lat": 33.7539891,
        "lon": -84.3742844
    },
    {
        "type": "node",
        "id": 4309086934,
        "lat": 33.7539886,
        "lon": -84.3741651
    },
    {
        "type": "node",
        "id": 4309086935,
        "lat": 33.7540546,
        "lon": -84.3742847
    },
    {
        "type": "node",
        "id": 4309086936,
        "lat": 33.7540542,
        "lon": -84.3741637
    },
    {
        "type": "node",
        "id": 4309086937,
        "lat": 33.7541167,
        "lon": -84.3742844
    },
    {
        "type": "node",
        "id": 4309086938,
        "lat": 33.7541163,
        "lon": -84.3741634
    },
    {
        "type": "node",
        "id": 4309086940,
        "lat": 33.7541782,
        "lon": -84.374163
    },
    {
        "type": "node",
        "id": 4626827713,
        "lat": 33.7538359,
        "lon": -84.371114
    },
    {
        "type": "node",
        "id": 4650774030,
        "lat": 33.7539487,
        "lon": -84.3711661
    },
    {
        "type": "node",
        "id": 4650774031,
        "lat": 33.7539252,
        "lon": -84.3721019
    },
    {
        "type": "node",
        "id": 6016411445,
        "lat": 33.7535555,
        "lon": -84.3756088
    },
    {
        "type": "node",
        "id": 6228500505,
        "lat": 33.7542255,
        "lon": -84.3717607
    },
    {
        "type": "node",
        "id": 6903463144,
        "lat": 33.7522391,
        "lon": -84.3712327
    },
    {
        "type": "node",
        "id": 6903463145,
        "lat": 33.752159,
        "lon": -84.3711773
    },
    {
        "type": "node",
        "id": 6903463159,
        "lat": 33.7520148,
        "lon": -84.3710642
    },
    {
        "type": "node",
        "id": 6903463160,
        "lat": 33.7520012,
        "lon": -84.3711119
    },
    {
        "type": "node",
        "id": 6903463161,
        "lat": 33.7519317,
        "lon": -84.37108
    },
    {
        "type": "node",
        "id": 6903463167,
        "lat": 33.7522036,
        "lon": -84.3712244
    },
    {
        "type": "node",
        "id": 7703331613,
        "lat": 33.7519354,
        "lon": -84.3710585
    },
    {
        "type": "node",
        "id": 7703331614,
        "lat": 33.7520081,
        "lon": -84.3710881
    },
    {
        "type": "node",
        "id": 7996322817,
        "lat": 33.7539292,
        "lon": -84.3720208
    },
    {
        "type": "node",
        "id": 7996322818,
        "lat": 33.7536149,
        "lon": -84.3756652
    },
    {
        "type": "node",
        "id": 7996322867,
        "lat": 33.752415,
        "lon": -84.3755088
    },
    {
        "type": "node",
        "id": 7996322868,
        "lat": 33.7523815,
        "lon": -84.3755839
    },
    {
        "type": "node",
        "id": 7996322869,
        "lat": 33.7523657,
        "lon": -84.3756848
    },
    {
        "type": "node",
        "id": 7996322870,
        "lat": 33.7523724,
        "lon": -84.375777
    },
    {
        "type": "node",
        "id": 7996322871,
        "lat": 33.7523993,
        "lon": -84.3758612
    },
    {
        "type": "node",
        "id": 7996322872,
        "lat": 33.7524306,
        "lon": -84.3759315
    },
    {
        "type": "node",
        "id": 7996322873,
        "lat": 33.7524478,
        "lon": -84.3760021
    },
    {
        "type": "node",
        "id": 7996322874,
        "lat": 33.75246,
        "lon": -84.3760763
    },
    {
        "type": "node",
        "id": 7996322875,
        "lat": 33.7524628,
        "lon": -84.3762845
    },
    {
        "type": "node",
        "id": 7996322876,
        "lat": 33.752458,
        "lon": -84.3764376
    },
    {
        "type": "node",
        "id": 7996322877,
        "lat": 33.7524445,
        "lon": -84.3764961
    },
    {
        "type": "node",
        "id": 7996322878,
        "lat": 33.7523942,
        "lon": -84.376486
    },
    {
        "type": "node",
        "id": 7996322879,
        "lat": 33.7523875,
        "lon": -84.376593
    },
    {
        "type": "node",
        "id": 7996323044,
        "lat": 33.753835,
        "lon": -84.3710738
    },
    {
        "type": "node",
        "id": 8040111015,
        "lat": 33.7480503,
        "lon": -84.3721041
    },
    {
        "type": "node",
        "id": 8040111016,
        "lat": 33.7479977,
        "lon": -84.3721054
    },
    {
        "type": "node",
        "id": 8040111017,
        "lat": 33.7479967,
        "lon": -84.3720468
    },
    {
        "type": "node",
        "id": 8040111018,
        "lat": 33.7480493,
        "lon": -84.3720454
    },
    {
        "type": "node",
        "id": 8197438137,
        "lat": 33.754269,
        "lon": -84.374968
    },
    {
        "type": "node",
        "id": 8197438138,
        "lat": 33.75413,
        "lon": -84.3749683
    },
    {
        "type": "node",
        "id": 8228616117,
        "lat": 33.7539555,
        "lon": -84.3760664
    },
    {
        "type": "node",
        "id": 8228616118,
        "lat": 33.7537169,
        "lon": -84.3760642
    },
    {
        "type": "node",
        "id": 8228616119,
        "lat": 33.7537195,
        "lon": -84.3756485
    },
    {
        "type": "node",
        "id": 8228616120,
        "lat": 33.7539581,
        "lon": -84.3756507
    },
    {
        "type": "node",
        "id": 316634890,
        "lat": 33.7415161,
        "lon": -84.369903
    },
    {
        "type": "node",
        "id": 3129742839,
        "lat": 33.7457319,
        "lon": -84.3683753
    },
    {
        "type": "node",
        "id": 3129742840,
        "lat": 33.745551,
        "lon": -84.3683733
    },
    {
        "type": "node",
        "id": 3129753001,
        "lat": 33.7457313,
        "lon": -84.3684535
    },
    {
        "type": "node",
        "id": 3129753002,
        "lat": 33.7455504,
        "lon": -84.3684515
    },
    {
        "type": "node",
        "id": 6925636894,
        "lat": 33.7466056,
        "lon": -84.3709386
    },
    {
        "type": "node",
        "id": 6939547518,
        "lat": 33.7415127,
        "lon": -84.3698733
    },
    {
        "type": "node",
        "id": 7865831612,
        "lat": 33.746416,
        "lon": -84.3710208
    },
    {
        "type": "node",
        "id": 7865831613,
        "lat": 33.7464147,
        "lon": -84.3709413
    },
    {
        "type": "node",
        "id": 9401540450,
        "lat": 33.7465948,
        "lon": -84.3656426
    },
    {
        "type": "node",
        "id": 9401540451,
        "lat": 33.7463384,
        "lon": -84.3656501
    },
    {
        "type": "node",
        "id": 9401540452,
        "lat": 33.746364,
        "lon": -84.3666511
    },
    {
        "type": "node",
        "id": 9401540453,
        "lat": 33.7465997,
        "lon": -84.3666544
    },
    {
        "type": "node",
        "id": 408175365,
        "lat": 33.7485571,
        "lon": -84.3646218
    },
    {
        "type": "node",
        "id": 408175372,
        "lat": 33.7502582,
        "lon": -84.364734
    },
    {
        "type": "node",
        "id": 408175373,
        "lat": 33.7494983,
        "lon": -84.3646129
    },
    {
        "type": "node",
        "id": 1120065345,
        "lat": 33.7513585,
        "lon": -84.3664088
    },
    {
        "type": "node",
        "id": 1120065346,
        "lat": 33.7513069,
        "lon": -84.3658828
    },
    {
        "type": "node",
        "id": 1120065347,
        "lat": 33.7514118,
        "lon": -84.3663435
    },
    {
        "type": "node",
        "id": 1120065348,
        "lat": 33.7509589,
        "lon": -84.3662713
    },
    {
        "type": "node",
        "id": 1120065349,
        "lat": 33.7511018,
        "lon": -84.3656371
    },
    {
        "type": "node",
        "id": 1120065350,
        "lat": 33.7515083,
        "lon": -84.3659577
    },
    {
        "type": "node",
        "id": 1120065351,
        "lat": 33.7513327,
        "lon": -84.3657167
    },
    {
        "type": "node",
        "id": 1120065352,
        "lat": 33.7512906,
        "lon": -84.3664035
    },
    {
        "type": "node",
        "id": 1120065353,
        "lat": 33.7513906,
        "lon": -84.3663831
    },
    {
        "type": "node",
        "id": 2755069429,
        "lat": 33.7539525,
        "lon": -84.3710223
    },
    {
        "type": "node",
        "id": 2755069430,
        "lat": 33.7539449,
        "lon": -84.3708158
    },
    {
        "type": "node",
        "id": 2755069478,
        "lat": 33.7540194,
        "lon": -84.3699172
    },
    {
        "type": "node",
        "id": 2755069480,
        "lat": 33.7540183,
        "lon": -84.3698259
    },
    {
        "type": "node",
        "id": 2755069545,
        "lat": 33.754205,
        "lon": -84.3699188
    },
    {
        "type": "node",
        "id": 2755069546,
        "lat": 33.7542038,
        "lon": -84.3698241
    },
    {
        "type": "node",
        "id": 2758385398,
        "lat": 33.7478206,
        "lon": -84.3678254
    },
    {
        "type": "node",
        "id": 2758385403,
        "lat": 33.7478216,
        "lon": -84.367899
    },
    {
        "type": "node",
        "id": 2758385405,
        "lat": 33.7478224,
        "lon": -84.3679601
    },
    {
        "type": "node",
        "id": 2758385443,
        "lat": 33.7478962,
        "lon": -84.3679586
    },
    {
        "type": "node",
        "id": 2758385445,
        "lat": 33.7478968,
        "lon": -84.3680049
    },
    {
        "type": "node",
        "id": 2758385448,
        "lat": 33.7478969,
        "lon": -84.3680058
    },
    {
        "type": "node",
        "id": 2758385460,
        "lat": 33.7479092,
        "lon": -84.3677764
    },
    {
        "type": "node",
        "id": 2758385463,
        "lat": 33.7479099,
        "lon": -84.3678237
    },
    {
        "type": "node",
        "id": 2758385551,
        "lat": 33.7479663,
        "lon": -84.3680045
    },
    {
        "type": "node",
        "id": 2758385554,
        "lat": 33.7479668,
        "lon": -84.3680427
    },
    {
        "type": "node",
        "id": 2758385591,
        "lat": 33.74799,
        "lon": -84.3677749
    },
    {
        "type": "node",
        "id": 2758385594,
        "lat": 33.7479904,
        "lon": -84.367811
    },
    {
        "type": "node",
        "id": 2758385612,
        "lat": 33.7479987,
        "lon": -84.3680077
    },
    {
        "type": "node",
        "id": 2758385615,
        "lat": 33.7479991,
        "lon": -84.368042
    },
    {
        "type": "node",
        "id": 2758385652,
        "lat": 33.7480152,
        "lon": -84.3678105
    },
    {
        "type": "node",
        "id": 2758385656,
        "lat": 33.7480179,
        "lon": -84.3680074
    },
    {
        "type": "node",
        "id": 2758390975,
        "lat": 33.7529127,
        "lon": -84.3685476
    },
    {
        "type": "node",
        "id": 2758390977,
        "lat": 33.7529157,
        "lon": -84.3687673
    },
    {
        "type": "node",
        "id": 2758391006,
        "lat": 33.753194,
        "lon": -84.3685421
    },
    {
        "type": "node",
        "id": 2758391008,
        "lat": 33.753197,
        "lon": -84.3687608
    },
    {
        "type": "node",
        "id": 2758391009,
        "lat": 33.753197,
        "lon": -84.3687618
    },
    {
        "type": "node",
        "id": 2758391127,
        "lat": 33.7539298,
        "lon": -84.3678696
    },
    {
        "type": "node",
        "id": 2758391129,
        "lat": 33.7539332,
        "lon": -84.3681797
    },
    {
        "type": "node",
        "id": 2758391170,
        "lat": 33.7539714,
        "lon": -84.368578
    },
    {
        "type": "node",
        "id": 2758391171,
        "lat": 33.7539722,
        "lon": -84.3685038
    },
    {
        "type": "node",
        "id": 2758391182,
        "lat": 33.7540025,
        "lon": -84.3684334
    },
    {
        "type": "node",
        "id": 2758391184,
        "lat": 33.754004,
        "lon": -84.368295
    },
    {
        "type": "node",
        "id": 2758391195,
        "lat": 33.7540332,
        "lon": -84.3685047
    },
    {
        "type": "node",
        "id": 2758391197,
        "lat": 33.7540339,
        "lon": -84.3684339
    },
    {
        "type": "node",
        "id": 2758391199,
        "lat": 33.7540496,
        "lon": -84.3678677
    },
    {
        "type": "node",
        "id": 2758391200,
        "lat": 33.7540512,
        "lon": -84.3680171
    },
    {
        "type": "node",
        "id": 2758391279,
        "lat": 33.7541955,
        "lon": -84.368298
    },
    {
        "type": "node",
        "id": 2758391291,
        "lat": 33.7542094,
        "lon": -84.3680146
    },
    {
        "type": "node",
        "id": 2758391295,
        "lat": 33.7542052,
        "lon": -84.3685816
    },
    {
        "type": "node",
        "id": 2758391297,
        "lat": 33.7542079,
        "lon": -84.3681753
    },
    {
        "type": "node",
        "id": 2758391299,
        "lat": 33.7542083,
        "lon": -84.3682982
    },
    {
        "type": "node",
        "id": 4626827715,
        "lat": 33.7538073,
        "lon": -84.3697722
    },
    {
        "type": "node",
        "id": 6307905780,
        "lat": 33.7538215,
        "lon": -84.3704393
    },
    {
        "type": "node",
        "id": 6903463146,
        "lat": 33.7516314,
        "lon": -84.3709454
    },
    {
        "type": "node",
        "id": 6903463147,
        "lat": 33.7516911,
        "lon": -84.3707584
    },
    {
        "type": "node",
        "id": 6903463148,
        "lat": 33.7518157,
        "lon": -84.3708148
    },
    {
        "type": "node",
        "id": 6903463149,
        "lat": 33.7518459,
        "lon": -84.3707978
    },
    {
        "type": "node",
        "id": 6903463150,
        "lat": 33.7518907,
        "lon": -84.3707645
    },
    {
        "type": "node",
        "id": 6903463151,
        "lat": 33.7519806,
        "lon": -84.3703739
    },
    {
        "type": "node",
        "id": 6903463152,
        "lat": 33.7521959,
        "lon": -84.3704807
    },
    {
        "type": "node",
        "id": 6903463153,
        "lat": 33.7520965,
        "lon": -84.3707843
    },
    {
        "type": "node",
        "id": 6903463154,
        "lat": 33.7522642,
        "lon": -84.3708475
    },
    {
        "type": "node",
        "id": 6903463155,
        "lat": 33.752312,
        "lon": -84.3705412
    },
    {
        "type": "node",
        "id": 6903463156,
        "lat": 33.7523528,
        "lon": -84.3705472
    },
    {
        "type": "node",
        "id": 6903463157,
        "lat": 33.7523127,
        "lon": -84.3708547
    },
    {
        "type": "node",
        "id": 6903463158,
        "lat": 33.7519421,
        "lon": -84.3710347
    },
    {
        "type": "node",
        "id": 6903463163,
        "lat": 33.7518585,
        "lon": -84.3707572
    },
    {
        "type": "node",
        "id": 6903463164,
        "lat": 33.752146,
        "lon": -84.3704961
    },
    {
        "type": "node",
        "id": 6903463165,
        "lat": 33.7521887,
        "lon": -84.3705056
    },
    {
        "type": "node",
        "id": 6903463168,
        "lat": 33.7521315,
        "lon": -84.3709077
    },
    {
        "type": "node",
        "id": 6903463169,
        "lat": 33.7521455,
        "lon": -84.370811
    },
    {
        "type": "node",
        "id": 6914083814,
        "lat": 33.7538602,
        "lon": -84.3708155
    },
    {
        "type": "node",
        "id": 6955046126,
        "lat": 33.7531442,
        "lon": -84.3663134
    },
    {
        "type": "node",
        "id": 6955046127,
        "lat": 33.7529913,
        "lon": -84.3662755
    },
    {
        "type": "node",
        "id": 6955046128,
        "lat": 33.7529053,
        "lon": -84.3665822
    },
    {
        "type": "node",
        "id": 6955046129,
        "lat": 33.7534632,
        "lon": -84.3667434
    },
    {
        "type": "node",
        "id": 6955046130,
        "lat": 33.7533867,
        "lon": -84.3667217
    },
    {
        "type": "node",
        "id": 6955046131,
        "lat": 33.7534173,
        "lon": -84.3665657
    },
    {
        "type": "node",
        "id": 6955046132,
        "lat": 33.7534938,
        "lon": -84.3665874
    },
    {
        "type": "node",
        "id": 7630126524,
        "lat": 33.7502718,
        "lon": -84.3647108
    },
    {
        "type": "node",
        "id": 7630126647,
        "lat": 33.7501984,
        "lon": -84.3647245
    },
    {
        "type": "node",
        "id": 7630142086,
        "lat": 33.7513256,
        "lon": -84.3664123
    },
    {
        "type": "node",
        "id": 7630142123,
        "lat": 33.7512667,
        "lon": -84.3660491
    },
    {
        "type": "node",
        "id": 7630142124,
        "lat": 33.7512059,
        "lon": -84.3660758
    },
    {
        "type": "node",
        "id": 7630142125,
        "lat": 33.7511387,
        "lon": -84.3660529
    },
    {
        "type": "node",
        "id": 7630142126,
        "lat": 33.7511281,
        "lon": -84.3660783
    },
    {
        "type": "node",
        "id": 7630142127,
        "lat": 33.7511398,
        "lon": -84.3660974
    },
    {
        "type": "node",
        "id": 7630142128,
        "lat": 33.751153,
        "lon": -84.3661241
    },
    {
        "type": "node",
        "id": 7630142129,
        "lat": 33.7511398,
        "lon": -84.3661712
    },
    {
        "type": "node",
        "id": 7630142130,
        "lat": 33.7511075,
        "lon": -84.3662164
    },
    {
        "type": "node",
        "id": 7630142131,
        "lat": 33.7510773,
        "lon": -84.3661967
    },
    {
        "type": "node",
        "id": 7630142132,
        "lat": 33.7510726,
        "lon": -84.3661719
    },
    {
        "type": "node",
        "id": 7630142133,
        "lat": 33.7510784,
        "lon": -84.3661394
    },
    {
        "type": "node",
        "id": 7630142134,
        "lat": 33.7510821,
        "lon": -84.3661032
    },
    {
        "type": "node",
        "id": 7630142135,
        "lat": 33.7510678,
        "lon": -84.3660764
    },
    {
        "type": "node",
        "id": 7630142136,
        "lat": 33.7510535,
        "lon": -84.3660478
    },
    {
        "type": "node",
        "id": 7630142137,
        "lat": 33.7510631,
        "lon": -84.3660243
    },
    {
        "type": "node",
        "id": 7630142138,
        "lat": 33.7510911,
        "lon": -84.3660103
    },
    {
        "type": "node",
        "id": 7630142139,
        "lat": 33.7511149,
        "lon": -84.3660039
    },
    {
        "type": "node",
        "id": 7630142140,
        "lat": 33.7511435,
        "lon": -84.3660141
    },
    {
        "type": "node",
        "id": 7630142141,
        "lat": 33.7512091,
        "lon": -84.3659937
    },
    {
        "type": "node",
        "id": 7630142142,
        "lat": 33.7512678,
        "lon": -84.3660128
    },
    {
        "type": "node",
        "id": 7703331599,
        "lat": 33.7522044,
        "lon": -84.3709153
    },
    {
        "type": "node",
        "id": 7703331600,
        "lat": 33.752213,
        "lon": -84.3708648
    },
    {
        "type": "node",
        "id": 7703331602,
        "lat": 33.7522158,
        "lon": -84.3708484
    },
    {
        "type": "node",
        "id": 7703331603,
        "lat": 33.7521478,
        "lon": -84.3707984
    },
    {
        "type": "node",
        "id": 7703331604,
        "lat": 33.7522029,
        "lon": -84.3709242
    },
    {
        "type": "node",
        "id": 7703331605,
        "lat": 33.7522302,
        "lon": -84.3708408
    },
    {
        "type": "node",
        "id": 7703331606,
        "lat": 33.7521312,
        "lon": -84.3704486
    },
    {
        "type": "node",
        "id": 7703331607,
        "lat": 33.7521361,
        "lon": -84.3704511
    },
    {
        "type": "node",
        "id": 7703331610,
        "lat": 33.7521137,
        "lon": -84.3704399
    },
    {
        "type": "node",
        "id": 7703331612,
        "lat": 33.7519924,
        "lon": -84.3703798
    },
    {
        "type": "node",
        "id": 7996323091,
        "lat": 33.7531956,
        "lon": -84.3686589
    },
    {
        "type": "node",
        "id": 408175366,
        "lat": 33.7485561,
        "lon": -84.3639391
    },
    {
        "type": "node",
        "id": 408175367,
        "lat": 33.7494642,
        "lon": -84.3639133
    },
    {
        "type": "node",
        "id": 408175368,
        "lat": 33.749464,
        "lon": -84.3634138
    },
    {
        "type": "node",
        "id": 408175369,
        "lat": 33.7498611,
        "lon": -84.3634073
    },
    {
        "type": "node",
        "id": 408175370,
        "lat": 33.7498679,
        "lon": -84.3639517
    },
    {
        "type": "node",
        "id": 408175371,
        "lat": 33.7502616,
        "lon": -84.363951
    },
    {
        "type": "node",
        "id": 7630126522,
        "lat": 33.7485471,
        "lon": -84.3640629
    },
    {
        "type": "node",
        "id": 7630126523,
        "lat": 33.7485503,
        "lon": -84.364329
    },
    {
        "type": "node",
        "id": 7630126525,
        "lat": 33.7498622,
        "lon": -84.3635022
    },
    {
        "type": "node",
        "id": 7630126526,
        "lat": 33.7494651,
        "lon": -84.3635086
    },
    {
        "type": "node",
        "id": 7630126660,
        "lat": 33.7502211,
        "lon": -84.3639519
    },
    {
        "type": "node",
        "id": 259137807,
        "lat": 33.7544123,
        "lon": -84.386147
    },
    {
        "type": "node",
        "id": 406202450,
        "lat": 33.7566176,
        "lon": -84.3882716
    },
    {
        "type": "node",
        "id": 406202451,
        "lat": 33.7564746,
        "lon": -84.3876063
    },
    {
        "type": "node",
        "id": 408351671,
        "lat": 33.7562442,
        "lon": -84.3884848
    },
    {
        "type": "node",
        "id": 408351676,
        "lat": 33.7573224,
        "lon": -84.3895984
    },
    {
        "type": "node",
        "id": 5006641304,
        "lat": 33.7554943,
        "lon": -84.3903623
    },
    {
        "type": "node",
        "id": 5006641305,
        "lat": 33.7552787,
        "lon": -84.3906681
    },
    {
        "type": "node",
        "id": 5006641307,
        "lat": 33.7548291,
        "lon": -84.3902434
    },
    {
        "type": "node",
        "id": 5604434543,
        "lat": 33.7543339,
        "lon": -84.3897272
    },
    {
        "type": "node",
        "id": 5604434549,
        "lat": 33.7552878,
        "lon": -84.3901451
    },
    {
        "type": "node",
        "id": 5604434550,
        "lat": 33.7569069,
        "lon": -84.3901585
    },
    {
        "type": "node",
        "id": 5770285653,
        "lat": 33.7559482,
        "lon": -84.3892083
    },
    {
        "type": "node",
        "id": 5781330488,
        "lat": 33.754555,
        "lon": -84.3864175
    },
    {
        "type": "node",
        "id": 5781330490,
        "lat": 33.7549617,
        "lon": -84.3861405
    },
    {
        "type": "node",
        "id": 7502147689,
        "lat": 33.7543375,
        "lon": -84.3861981
    },
    {
        "type": "node",
        "id": 7502147690,
        "lat": 33.7543752,
        "lon": -84.3861783
    },
    {
        "type": "node",
        "id": 7502147691,
        "lat": 33.7543974,
        "lon": -84.3847666
    },
    {
        "type": "node",
        "id": 7502147692,
        "lat": 33.7543883,
        "lon": -84.3847202
    },
    {
        "type": "node",
        "id": 7502147693,
        "lat": 33.7543712,
        "lon": -84.3846932
    },
    {
        "type": "node",
        "id": 7502147694,
        "lat": 33.7543407,
        "lon": -84.3846668
    },
    {
        "type": "node",
        "id": 9868221408,
        "lat": 33.7554723,
        "lon": -84.3898833
    },
    {
        "type": "node",
        "id": 10158229559,
        "lat": 33.7571452,
        "lon": -84.3875952
    },
    {
        "type": "node",
        "id": 10158229560,
        "lat": 33.7571414,
        "lon": -84.3860772
    },
    {
        "type": "node",
        "id": 10158229567,
        "lat": 33.7571699,
        "lon": -84.3843227
    },
    {
        "type": "node",
        "id": 10158229568,
        "lat": 33.7545346,
        "lon": -84.3843562
    },
    {
        "type": "node",
        "id": 1127215878,
        "lat": 33.7559328,
        "lon": -84.3821742
    },
    {
        "type": "node",
        "id": 1127215881,
        "lat": 33.7559315,
        "lon": -84.381847
    },
    {
        "type": "node",
        "id": 1127215882,
        "lat": 33.7557755,
        "lon": -84.3818521
    },
    {
        "type": "node",
        "id": 1127215883,
        "lat": 33.7557717,
        "lon": -84.3818523
    },
    {
        "type": "node",
        "id": 1127215884,
        "lat": 33.7556097,
        "lon": -84.3818569
    },
    {
        "type": "node",
        "id": 1127215885,
        "lat": 33.7556123,
        "lon": -84.3821708
    },
    {
        "type": "node",
        "id": 1139929638,
        "lat": 33.7556068,
        "lon": -84.3778133
    },
    {
        "type": "node",
        "id": 1179123443,
        "lat": 33.7550328,
        "lon": -84.3840684
    },
    {
        "type": "node",
        "id": 1179123448,
        "lat": 33.7551243,
        "lon": -84.3837949
    },
    {
        "type": "node",
        "id": 1179123449,
        "lat": 33.7554788,
        "lon": -84.383996
    },
    {
        "type": "node",
        "id": 1179123456,
        "lat": 33.75549,
        "lon": -84.3836903
    },
    {
        "type": "node",
        "id": 1179123461,
        "lat": 33.7550872,
        "lon": -84.3838332
    },
    {
        "type": "node",
        "id": 1179123471,
        "lat": 33.7554209,
        "lon": -84.3838807
    },
    {
        "type": "node",
        "id": 1179123482,
        "lat": 33.7554766,
        "lon": -84.3839504
    },
    {
        "type": "node",
        "id": 1179123487,
        "lat": 33.7554521,
        "lon": -84.3839102
    },
    {
        "type": "node",
        "id": 1179123489,
        "lat": 33.7550328,
        "lon": -84.3839531
    },
    {
        "type": "node",
        "id": 1179123495,
        "lat": 33.755131,
        "lon": -84.3838217
    },
    {
        "type": "node",
        "id": 1179123496,
        "lat": 33.7554699,
        "lon": -84.3840497
    },
    {
        "type": "node",
        "id": 1179123498,
        "lat": 33.7552246,
        "lon": -84.3837627
    },
    {
        "type": "node",
        "id": 1179123504,
        "lat": 33.7554119,
        "lon": -84.3841194
    },
    {
        "type": "node",
        "id": 1179123508,
        "lat": 33.7551997,
        "lon": -84.3836911
    },
    {
        "type": "node",
        "id": 1179123509,
        "lat": 33.7551109,
        "lon": -84.3841301
    },
    {
        "type": "node",
        "id": 1179123524,
        "lat": 33.7551087,
        "lon": -84.3840684
    },
    {
        "type": "node",
        "id": 1179123526,
        "lat": 33.7554499,
        "lon": -84.3840899
    },
    {
        "type": "node",
        "id": 1179123531,
        "lat": 33.7553852,
        "lon": -84.3841328
    },
    {
        "type": "node",
        "id": 1179123543,
        "lat": 33.7550887,
        "lon": -84.3839504
    },
    {
        "type": "node",
        "id": 1179172480,
        "lat": 33.7547626,
        "lon": -84.3777158
    },
    {
        "type": "node",
        "id": 1179172518,
        "lat": 33.7544909,
        "lon": -84.3777447
    },
    {
        "type": "node",
        "id": 1179172522,
        "lat": 33.7547316,
        "lon": -84.3777317
    },
    {
        "type": "node",
        "id": 1179172561,
        "lat": 33.7548329,
        "lon": -84.3776443
    },
    {
        "type": "node",
        "id": 2285000035,
        "lat": 33.7589978,
        "lon": -84.377902
    },
    {
        "type": "node",
        "id": 2285000036,
        "lat": 33.7593167,
        "lon": -84.3777679
    },
    {
        "type": "node",
        "id": 2285000037,
        "lat": 33.7594416,
        "lon": -84.3776549
    },
    {
        "type": "node",
        "id": 2285000038,
        "lat": 33.759145,
        "lon": -84.3778534
    },
    {
        "type": "node",
        "id": 3640986672,
        "lat": 33.7569172,
        "lon": -84.381446
    },
    {
        "type": "node",
        "id": 3640986673,
        "lat": 33.7563742,
        "lon": -84.3814496
    },
    {
        "type": "node",
        "id": 3640986674,
        "lat": 33.7563733,
        "lon": -84.3812548
    },
    {
        "type": "node",
        "id": 3640986675,
        "lat": 33.7559731,
        "lon": -84.3812575
    },
    {
        "type": "node",
        "id": 3958109677,
        "lat": 33.7545219,
        "lon": -84.3779119
    },
    {
        "type": "node",
        "id": 3958109681,
        "lat": 33.7554531,
        "lon": -84.3778976
    },
    {
        "type": "node",
        "id": 4309301264,
        "lat": 33.7557727,
        "lon": -84.3777138
    },
    {
        "type": "node",
        "id": 4309301265,
        "lat": 33.7556047,
        "lon": -84.377718
    },
    {
        "type": "node",
        "id": 4309301266,
        "lat": 33.7558335,
        "lon": -84.3777107
    },
    {
        "type": "node",
        "id": 4309301267,
        "lat": 33.7558356,
        "lon": -84.3778059
    },
    {
        "type": "node",
        "id": 5006641280,
        "lat": 33.7545082,
        "lon": -84.3822597
    },
    {
        "type": "node",
        "id": 6014094970,
        "lat": 33.7578242,
        "lon": -84.3776699
    },
    {
        "type": "node",
        "id": 6014094971,
        "lat": 33.7578422,
        "lon": -84.3777514
    },
    {
        "type": "node",
        "id": 6014099756,
        "lat": 33.7553918,
        "lon": -84.3779
    },
    {
        "type": "node",
        "id": 6014099757,
        "lat": 33.754637,
        "lon": -84.3779524
    },
    {
        "type": "node",
        "id": 6014099758,
        "lat": 33.7545695,
        "lon": -84.3779423
    },
    {
        "type": "node",
        "id": 6014099759,
        "lat": 33.7545003,
        "lon": -84.3778629
    },
    {
        "type": "node",
        "id": 6014099760,
        "lat": 33.7544943,
        "lon": -84.3778082
    },
    {
        "type": "node",
        "id": 7503827442,
        "lat": 33.7545514,
        "lon": -84.3836482
    },
    {
        "type": "node",
        "id": 7503827444,
        "lat": 33.7545522,
        "lon": -84.3837336
    },
    {
        "type": "node",
        "id": 7503827445,
        "lat": 33.7547571,
        "lon": -84.3837306
    },
    {
        "type": "node",
        "id": 7503827446,
        "lat": 33.7547563,
        "lon": -84.3836453
    },
    {
        "type": "node",
        "id": 7571686184,
        "lat": 33.757944,
        "lon": -84.3777629
    },
    {
        "type": "node",
        "id": 7571768686,
        "lat": 33.7582295,
        "lon": -84.3779775
    },
    {
        "type": "node",
        "id": 7571768695,
        "lat": 33.758749,
        "lon": -84.3778696
    },
    {
        "type": "node",
        "id": 7571768696,
        "lat": 33.7583077,
        "lon": -84.3778679
    },
    {
        "type": "node",
        "id": 7571768766,
        "lat": 33.7588465,
        "lon": -84.3777509
    },
    {
        "type": "node",
        "id": 7571768767,
        "lat": 33.7589759,
        "lon": -84.3777525
    },
    {
        "type": "node",
        "id": 7571768768,
        "lat": 33.7590707,
        "lon": -84.3777371
    },
    {
        "type": "node",
        "id": 7571768769,
        "lat": 33.7592,
        "lon": -84.3777001
    },
    {
        "type": "node",
        "id": 7571768770,
        "lat": 33.7592807,
        "lon": -84.3776708
    },
    {
        "type": "node",
        "id": 7571768771,
        "lat": 33.7593723,
        "lon": -84.3776017
    },
    {
        "type": "node",
        "id": 7571768782,
        "lat": 33.7586238,
        "lon": -84.3779596
    },
    {
        "type": "node",
        "id": 7847578040,
        "lat": 33.755616,
        "lon": -84.3792868
    },
    {
        "type": "node",
        "id": 7847578041,
        "lat": 33.7558152,
        "lon": -84.3792841
    },
    {
        "type": "node",
        "id": 7847578042,
        "lat": 33.7558152,
        "lon": -84.3793626
    },
    {
        "type": "node",
        "id": 7847578043,
        "lat": 33.7556323,
        "lon": -84.3793626
    },
    {
        "type": "node",
        "id": 7847578044,
        "lat": 33.755616,
        "lon": -84.379344
    },
    {
        "type": "node",
        "id": 7847578045,
        "lat": 33.7556762,
        "lon": -84.3792871
    },
    {
        "type": "node",
        "id": 7847578046,
        "lat": 33.7556749,
        "lon": -84.3791968
    },
    {
        "type": "node",
        "id": 7847578047,
        "lat": 33.755828,
        "lon": -84.3791966
    },
    {
        "type": "node",
        "id": 7847578049,
        "lat": 33.7558274,
        "lon": -84.379116
    },
    {
        "type": "node",
        "id": 7847578050,
        "lat": 33.7556153,
        "lon": -84.379117
    },
    {
        "type": "node",
        "id": 7847578051,
        "lat": 33.7556155,
        "lon": -84.379197
    },
    {
        "type": "node",
        "id": 7996307057,
        "lat": 33.7548939,
        "lon": -84.3779346
    },
    {
        "type": "node",
        "id": 7996307068,
        "lat": 33.7554595,
        "lon": -84.3776294
    },
    {
        "type": "node",
        "id": 7996307074,
        "lat": 33.7549759,
        "lon": -84.3779289
    },
    {
        "type": "node",
        "id": 7996322790,
        "lat": 33.7554596,
        "lon": -84.3776145
    },
    {
        "type": "node",
        "id": 8130628414,
        "lat": 33.7551597,
        "lon": -84.3779161
    },
    {
        "type": "node",
        "id": 10158229561,
        "lat": 33.755975,
        "lon": -84.382271
    },
    {
        "type": "node",
        "id": 10158229562,
        "lat": 33.7571812,
        "lon": -84.3814684
    },
    {
        "type": "node",
        "id": 10158229563,
        "lat": 33.7573762,
        "lon": -84.3802855
    },
    {
        "type": "node",
        "id": 10158229564,
        "lat": 33.7596614,
        "lon": -84.3803658
    },
    {
        "type": "node",
        "id": 10158229565,
        "lat": 33.7596166,
        "lon": -84.382253
    },
    {
        "type": "node",
        "id": 10158229566,
        "lat": 33.7571676,
        "lon": -84.3823017
    },
    {
        "type": "node",
        "id": 358688872,
        "lat": 33.7567752,
        "lon": -84.3722341
    },
    {
        "type": "node",
        "id": 1088430443,
        "lat": 33.7585776,
        "lon": -84.3726463
    },
    {
        "type": "node",
        "id": 1088430445,
        "lat": 33.7585752,
        "lon": -84.3724424
    },
    {
        "type": "node",
        "id": 1088430448,
        "lat": 33.7582608,
        "lon": -84.3724477
    },
    {
        "type": "node",
        "id": 1088430465,
        "lat": 33.7582632,
        "lon": -84.3726515
    },
    {
        "type": "node",
        "id": 1179113506,
        "lat": 33.7547043,
        "lon": -84.3767121
    },
    {
        "type": "node",
        "id": 1179113601,
        "lat": 33.7545594,
        "lon": -84.3767159
    },
    {
        "type": "node",
        "id": 1179113659,
        "lat": 33.7545653,
        "lon": -84.3770431
    },
    {
        "type": "node",
        "id": 1179113682,
        "lat": 33.7547102,
        "lon": -84.3770394
    },
    {
        "type": "node",
        "id": 1179172484,
        "lat": 33.7551113,
        "lon": -84.3774438
    },
    {
        "type": "node",
        "id": 1179172502,
        "lat": 33.7552968,
        "lon": -84.3775639
    },
    {
        "type": "node",
        "id": 1179172528,
        "lat": 33.7554598,
        "lon": -84.3775573
    },
    {
        "type": "node",
        "id": 1179172532,
        "lat": 33.755232,
        "lon": -84.3774968
    },
    {
        "type": "node",
        "id": 1179172535,
        "lat": 33.7549439,
        "lon": -84.3775829
    },
    {
        "type": "node",
        "id": 1179172541,
        "lat": 33.7552294,
        "lon": -84.3774456
    },
    {
        "type": "node",
        "id": 1246052444,
        "lat": 33.7546051,
        "lon": -84.3725437
    },
    {
        "type": "node",
        "id": 1246052450,
        "lat": 33.7546632,
        "lon": -84.3724372
    },
    {
        "type": "node",
        "id": 1246052456,
        "lat": 33.7545656,
        "lon": -84.3722633
    },
    {
        "type": "node",
        "id": 1246052474,
        "lat": 33.754403,
        "lon": -84.3724443
    },
    {
        "type": "node",
        "id": 1246052476,
        "lat": 33.7543982,
        "lon": -84.3722624
    },
    {
        "type": "node",
        "id": 1246052477,
        "lat": 33.7544016,
        "lon": -84.3725458
    },
    {
        "type": "node",
        "id": 1246052480,
        "lat": 33.7545654,
        "lon": -84.3724384
    },
    {
        "type": "node",
        "id": 1246052487,
        "lat": 33.7546651,
        "lon": -84.3725427
    },
    {
        "type": "node",
        "id": 1246177707,
        "lat": 33.7544223,
        "lon": -84.3739991
    },
    {
        "type": "node",
        "id": 1246177746,
        "lat": 33.7545866,
        "lon": -84.3738236
    },
    {
        "type": "node",
        "id": 1246177762,
        "lat": 33.7545879,
        "lon": -84.3739202
    },
    {
        "type": "node",
        "id": 1246177777,
        "lat": 33.7545044,
        "lon": -84.373749
    },
    {
        "type": "node",
        "id": 1246335819,
        "lat": 33.7543964,
        "lon": -84.372064
    },
    {
        "type": "node",
        "id": 1246335833,
        "lat": 33.7543888,
        "lon": -84.3717104
    },
    {
        "type": "node",
        "id": 1246335839,
        "lat": 33.7545983,
        "lon": -84.3718741
    },
    {
        "type": "node",
        "id": 1246335850,
        "lat": 33.7546009,
        "lon": -84.3720598
    },
    {
        "type": "node",
        "id": 1246335852,
        "lat": 33.7545583,
        "lon": -84.3718749
    },
    {
        "type": "node",
        "id": 1246335867,
        "lat": 33.7545551,
        "lon": -84.3717054
    },
    {
        "type": "node",
        "id": 1246335874,
        "lat": 33.7543938,
        "lon": -84.3718782
    },
    {
        "type": "node",
        "id": 1246335904,
        "lat": 33.7544199,
        "lon": -84.3738269
    },
    {
        "type": "node",
        "id": 1843282944,
        "lat": 33.7553621,
        "lon": -84.3731726
    },
    {
        "type": "node",
        "id": 2271259086,
        "lat": 33.7568363,
        "lon": -84.373065
    },
    {
        "type": "node",
        "id": 2271261938,
        "lat": 33.7567753,
        "lon": -84.3723371
    },
    {
        "type": "node",
        "id": 2271261939,
        "lat": 33.7567756,
        "lon": -84.3725454
    },
    {
        "type": "node",
        "id": 2271261951,
        "lat": 33.7567755,
        "lon": -84.3724942
    },
    {
        "type": "node",
        "id": 2271266362,
        "lat": 33.7567421,
        "lon": -84.3732579
    },
    {
        "type": "node",
        "id": 2271266363,
        "lat": 33.7559128,
        "lon": -84.3733829
    },
    {
        "type": "node",
        "id": 2271266365,
        "lat": 33.75593,
        "lon": -84.3733547
    },
    {
        "type": "node",
        "id": 2271266367,
        "lat": 33.7559341,
        "lon": -84.3734829
    },
    {
        "type": "node",
        "id": 2271266369,
        "lat": 33.7558055,
        "lon": -84.373514
    },
    {
        "type": "node",
        "id": 2271266371,
        "lat": 33.754799,
        "lon": -84.3716974
    },
    {
        "type": "node",
        "id": 2271266375,
        "lat": 33.755829,
        "lon": -84.3732539
    },
    {
        "type": "node",
        "id": 2271266376,
        "lat": 33.7558493,
        "lon": -84.3732282
    },
    {
        "type": "node",
        "id": 2271266381,
        "lat": 33.7572966,
        "lon": -84.3731974
    },
    {
        "type": "node",
        "id": 2271266392,
        "lat": 33.757516,
        "lon": -84.3732069
    },
    {
        "type": "node",
        "id": 2271266396,
        "lat": 33.7575173,
        "lon": -84.3732604
    },
    {
        "type": "node",
        "id": 2271266397,
        "lat": 33.7548167,
        "lon": -84.3717332
    },
    {
        "type": "node",
        "id": 2271266398,
        "lat": 33.7547844,
        "lon": -84.3716129
    },
    {
        "type": "node",
        "id": 2271266403,
        "lat": 33.7559149,
        "lon": -84.3734345
    },
    {
        "type": "node",
        "id": 2271266404,
        "lat": 33.757032,
        "lon": -84.3732123
    },
    {
        "type": "node",
        "id": 2271266407,
        "lat": 33.7559102,
        "lon": -84.3734177
    },
    {
        "type": "node",
        "id": 2271266409,
        "lat": 33.7569707,
        "lon": -84.3732136
    },
    {
        "type": "node",
        "id": 2271266411,
        "lat": 33.7557799,
        "lon": -84.3734362
    },
    {
        "type": "node",
        "id": 2271266412,
        "lat": 33.7572339,
        "lon": -84.3732834
    },
    {
        "type": "node",
        "id": 2271266413,
        "lat": 33.7547854,
        "lon": -84.3716587
    },
    {
        "type": "node",
        "id": 2271266414,
        "lat": 33.7567424,
        "lon": -84.3732336
    },
    {
        "type": "node",
        "id": 2271266418,
        "lat": 33.7569707,
        "lon": -84.3732673
    },
    {
        "type": "node",
        "id": 2271266425,
        "lat": 33.7557877,
        "lon": -84.3734725
    },
    {
        "type": "node",
        "id": 2271266427,
        "lat": 33.7557913,
        "lon": -84.3733208
    },
    {
        "type": "node",
        "id": 2271266428,
        "lat": 33.7572988,
        "lon": -84.3732805
    },
    {
        "type": "node",
        "id": 2271266429,
        "lat": 33.7557779,
        "lon": -84.3733972
    },
    {
        "type": "node",
        "id": 2271266430,
        "lat": 33.7548166,
        "lon": -84.3717
    },
    {
        "type": "node",
        "id": 2271266435,
        "lat": 33.7549534,
        "lon": -84.3717319
    },
    {
        "type": "node",
        "id": 2271266438,
        "lat": 33.7559343,
        "lon": -84.3734605
    },
    {
        "type": "node",
        "id": 2271266440,
        "lat": 33.7572364,
        "lon": -84.3732014
    },
    {
        "type": "node",
        "id": 2271266445,
        "lat": 33.7558248,
        "lon": -84.3735488
    },
    {
        "type": "node",
        "id": 2271266446,
        "lat": 33.7557813,
        "lon": -84.3733583
    },
    {
        "type": "node",
        "id": 2271266454,
        "lat": 33.7558577,
        "lon": -84.3735802
    },
    {
        "type": "node",
        "id": 2271266457,
        "lat": 33.7559095,
        "lon": -84.3734001
    },
    {
        "type": "node",
        "id": 2271266458,
        "lat": 33.7575226,
        "lon": -84.3731801
    },
    {
        "type": "node",
        "id": 2271266462,
        "lat": 33.7570309,
        "lon": -84.3732713
    },
    {
        "type": "node",
        "id": 2271266463,
        "lat": 33.7575215,
        "lon": -84.3732927
    },
    {
        "type": "node",
        "id": 2271266464,
        "lat": 33.7575137,
        "lon": -84.3732324
    },
    {
        "type": "node",
        "id": 2271266465,
        "lat": 33.7547965,
        "lon": -84.3716587
    },
    {
        "type": "node",
        "id": 2271266466,
        "lat": 33.7558081,
        "lon": -84.3732872
    },
    {
        "type": "node",
        "id": 2271266469,
        "lat": 33.7559311,
        "lon": -84.373326
    },
    {
        "type": "node",
        "id": 2271271845,
        "lat": 33.7584247,
        "lon": -84.3738721
    },
    {
        "type": "node",
        "id": 2271271849,
        "lat": 33.7586714,
        "lon": -84.3738695
    },
    {
        "type": "node",
        "id": 2271271852,
        "lat": 33.758775,
        "lon": -84.3740731
    },
    {
        "type": "node",
        "id": 2271271855,
        "lat": 33.7588163,
        "lon": -84.3738679
    },
    {
        "type": "node",
        "id": 2271271863,
        "lat": 33.7590214,
        "lon": -84.3721753
    },
    {
        "type": "node",
        "id": 2271271867,
        "lat": 33.7587391,
        "lon": -84.3742181
    },
    {
        "type": "node",
        "id": 2271271869,
        "lat": 33.7587606,
        "lon": -84.3738685
    },
    {
        "type": "node",
        "id": 2271271873,
        "lat": 33.7587625,
        "lon": -84.3740733
    },
    {
        "type": "node",
        "id": 2271271874,
        "lat": 33.7588464,
        "lon": -84.3721784
    },
    {
        "type": "node",
        "id": 2271271876,
        "lat": 33.7583592,
        "lon": -84.3740222
    },
    {
        "type": "node",
        "id": 2271271885,
        "lat": 33.7584269,
        "lon": -84.3740236
    },
    {
        "type": "node",
        "id": 2271271886,
        "lat": 33.7583589,
        "lon": -84.3742221
    },
    {
        "type": "node",
        "id": 2271272134,
        "lat": 33.7575454,
        "lon": -84.3741701
    },
    {
        "type": "node",
        "id": 2271272135,
        "lat": 33.7571799,
        "lon": -84.3733927
    },
    {
        "type": "node",
        "id": 2271272136,
        "lat": 33.7575346,
        "lon": -84.3733857
    },
    {
        "type": "node",
        "id": 2271272137,
        "lat": 33.7571907,
        "lon": -84.3741771
    },
    {
        "type": "node",
        "id": 2285000039,
        "lat": 33.7595419,
        "lon": -84.3775315
    },
    {
        "type": "node",
        "id": 2285000042,
        "lat": 33.7596846,
        "lon": -84.3772713
    },
    {
        "type": "node",
        "id": 3958109851,
        "lat": 33.7577791,
        "lon": -84.3766611
    },
    {
        "type": "node",
        "id": 4309301255,
        "lat": 33.7557353,
        "lon": -84.3772891
    },
    {
        "type": "node",
        "id": 4309301256,
        "lat": 33.7557366,
        "lon": -84.3773737
    },
    {
        "type": "node",
        "id": 4309301257,
        "lat": 33.7555989,
        "lon": -84.3773761
    },
    {
        "type": "node",
        "id": 4309301258,
        "lat": 33.7555982,
        "lon": -84.3772916
    },
    {
        "type": "node",
        "id": 4309301259,
        "lat": 33.7557378,
        "lon": -84.3774633
    },
    {
        "type": "node",
        "id": 4309301260,
        "lat": 33.7555997,
        "lon": -84.3774657
    },
    {
        "type": "node",
        "id": 4309301261,
        "lat": 33.7557388,
        "lon": -84.3775481
    },
    {
        "type": "node",
        "id": 4309301262,
        "lat": 33.7556018,
        "lon": -84.3775515
    },
    {
        "type": "node",
        "id": 4309353485,
        "lat": 33.7544383,
        "lon": -84.3753172
    },
    {
        "type": "node",
        "id": 4309353486,
        "lat": 33.7544375,
        "lon": -84.375238
    },
    {
        "type": "node",
        "id": 4309353487,
        "lat": 33.7545479,
        "lon": -84.3752366
    },
    {
        "type": "node",
        "id": 4309353488,
        "lat": 33.7545487,
        "lon": -84.3753157
    },
    {
        "type": "node",
        "id": 4309354793,
        "lat": 33.7547287,
        "lon": -84.3747931
    },
    {
        "type": "node",
        "id": 4309354794,
        "lat": 33.754728,
        "lon": -84.3745585
    },
    {
        "type": "node",
        "id": 4309354795,
        "lat": 33.7546222,
        "lon": -84.374559
    },
    {
        "type": "node",
        "id": 4309354796,
        "lat": 33.7546229,
        "lon": -84.3747936
    },
    {
        "type": "node",
        "id": 4650774018,
        "lat": 33.7598293,
        "lon": -84.3725067
    },
    {
        "type": "node",
        "id": 4650774019,
        "lat": 33.7597399,
        "lon": -84.373747
    },
    {
        "type": "node",
        "id": 4650774021,
        "lat": 33.7597294,
        "lon": -84.3731376
    },
    {
        "type": "node",
        "id": 4650774023,
        "lat": 33.7575673,
        "lon": -84.3722008
    },
    {
        "type": "node",
        "id": 4650774024,
        "lat": 33.7555457,
        "lon": -84.3722181
    },
    {
        "type": "node",
        "id": 4650774025,
        "lat": 33.7559331,
        "lon": -84.3731309
    },
    {
        "type": "node",
        "id": 4650774026,
        "lat": 33.7595972,
        "lon": -84.3742448
    },
    {
        "type": "node",
        "id": 4650774027,
        "lat": 33.7558477,
        "lon": -84.3729734
    },
    {
        "type": "node",
        "id": 4650774028,
        "lat": 33.7555611,
        "lon": -84.3729707
    },
    {
        "type": "node",
        "id": 4650774029,
        "lat": 33.7596596,
        "lon": -84.3740334
    },
    {
        "type": "node",
        "id": 4650774032,
        "lat": 33.7559232,
        "lon": -84.3722152
    },
    {
        "type": "node",
        "id": 4650774033,
        "lat": 33.7597651,
        "lon": -84.372893
    },
    {
        "type": "node",
        "id": 4650774035,
        "lat": 33.7561219,
        "lon": -84.3730046
    },
    {
        "type": "node",
        "id": 4650774037,
        "lat": 33.7575731,
        "lon": -84.3730571
    },
    {
        "type": "node",
        "id": 4650774038,
        "lat": 33.759683,
        "lon": -84.3733178
    },
    {
        "type": "node",
        "id": 4650774040,
        "lat": 33.7599147,
        "lon": -84.372179
    },
    {
        "type": "node",
        "id": 4650774042,
        "lat": 33.7597651,
        "lon": -84.3727041
    },
    {
        "type": "node",
        "id": 6014094969,
        "lat": 33.7578242,
        "lon": -84.3768732
    },
    {
        "type": "node",
        "id": 6016005650,
        "lat": 33.7577354,
        "lon": -84.3721979
    },
    {
        "type": "node",
        "id": 7571768697,
        "lat": 33.7583109,
        "lon": -84.3766802
    },
    {
        "type": "node",
        "id": 7571768698,
        "lat": 33.758752,
        "lon": -84.3766818
    },
    {
        "type": "node",
        "id": 7571768764,
        "lat": 33.7589247,
        "lon": -84.3765647
    },
    {
        "type": "node",
        "id": 7571768765,
        "lat": 33.7588491,
        "lon": -84.3766279
    },
    {
        "type": "node",
        "id": 7571768772,
        "lat": 33.7594046,
        "lon": -84.3775802
    },
    {
        "type": "node",
        "id": 7571768773,
        "lat": 33.7594776,
        "lon": -84.3774977
    },
    {
        "type": "node",
        "id": 7571768774,
        "lat": 33.75952,
        "lon": -84.37743
    },
    {
        "type": "node",
        "id": 7571768775,
        "lat": 33.7595651,
        "lon": -84.3773509
    },
    {
        "type": "node",
        "id": 7571768776,
        "lat": 33.7596153,
        "lon": -84.377253
    },
    {
        "type": "node",
        "id": 7571768777,
        "lat": 33.7596655,
        "lon": -84.3771095
    },
    {
        "type": "node",
        "id": 7571768778,
        "lat": 33.7597034,
        "lon": -84.3770015
    },
    {
        "type": "node",
        "id": 7571768779,
        "lat": 33.7597307,
        "lon": -84.3768895
    },
    {
        "type": "node",
        "id": 7571768780,
        "lat": 33.759748,
        "lon": -84.3768165
    },
    {
        "type": "node",
        "id": 7571768781,
        "lat": 33.7597692,
        "lon": -84.3767045
    },
    {
        "type": "node",
        "id": 7571768783,
        "lat": 33.7598037,
        "lon": -84.3768854
    },
    {
        "type": "node",
        "id": 7571768784,
        "lat": 33.7598861,
        "lon": -84.3765475
    },
    {
        "type": "node",
        "id": 7571768785,
        "lat": 33.7599081,
        "lon": -84.3764254
    },
    {
        "type": "node",
        "id": 7571768786,
        "lat": 33.7589372,
        "lon": -84.3763969
    },
    {
        "type": "node",
        "id": 7571768787,
        "lat": 33.7581442,
        "lon": -84.3764254
    },
    {
        "type": "node",
        "id": 7571768788,
        "lat": 33.7577866,
        "lon": -84.3764324
    },
    {
        "type": "node",
        "id": 7649242980,
        "lat": 33.7579918,
        "lon": -84.3721934
    },
    {
        "type": "node",
        "id": 7996323030,
        "lat": 33.7544556,
        "lon": -84.3743621
    },
    {
        "type": "node",
        "id": 8197325826,
        "lat": 33.7551842,
        "lon": -84.3734631
    },
    {
        "type": "node",
        "id": 8197325827,
        "lat": 33.7552415,
        "lon": -84.3734631
    },
    {
        "type": "node",
        "id": 8197325828,
        "lat": 33.7552414,
        "lon": -84.373366
    },
    {
        "type": "node",
        "id": 8197325829,
        "lat": 33.7551852,
        "lon": -84.3733676
    },
    {
        "type": "node",
        "id": 8197325830,
        "lat": 33.7551847,
        "lon": -84.3731732
    },
    {
        "type": "node",
        "id": 8197325849,
        "lat": 33.7553112,
        "lon": -84.3737029
    },
    {
        "type": "node",
        "id": 8197325850,
        "lat": 33.7553784,
        "lon": -84.3737049
    },
    {
        "type": "node",
        "id": 8197325851,
        "lat": 33.7553767,
        "lon": -84.3731728
    },
    {
        "type": "node",
        "id": 8197325852,
        "lat": 33.7553107,
        "lon": -84.3731728
    },
    {
        "type": "node",
        "id": 8197325853,
        "lat": 33.7553112,
        "lon": -84.3736547
    },
    {
        "type": "node",
        "id": 8197325854,
        "lat": 33.7552416,
        "lon": -84.3736548
    },
    {
        "type": "node",
        "id": 8197325855,
        "lat": 33.7552413,
        "lon": -84.373173
    },
    {
        "type": "node",
        "id": 8197325856,
        "lat": 33.7552415,
        "lon": -84.3736086
    },
    {
        "type": "node",
        "id": 8197325857,
        "lat": 33.7551841,
        "lon": -84.37361
    },
    {
        "type": "node",
        "id": 8197325871,
        "lat": 33.7565085,
        "lon": -84.3729988
    },
    {
        "type": "node",
        "id": 8197325872,
        "lat": 33.7567761,
        "lon": -84.3729594
    },
    {
        "type": "node",
        "id": 8197325904,
        "lat": 33.7546919,
        "lon": -84.3740074
    },
    {
        "type": "node",
        "id": 8197325908,
        "lat": 33.7544771,
        "lon": -84.373998
    },
    {
        "type": "node",
        "id": 8197325909,
        "lat": 33.7544761,
        "lon": -84.3739225
    },
    {
        "type": "node",
        "id": 8197415114,
        "lat": 33.7544197,
        "lon": -84.3737517
    },
    {
        "type": "node",
        "id": 8197415115,
        "lat": 33.7546656,
        "lon": -84.3737508
    },
    {
        "type": "node",
        "id": 8197415116,
        "lat": 33.7546666,
        "lon": -84.3737866
    },
    {
        "type": "node",
        "id": 8197438117,
        "lat": 33.7546923,
        "lon": -84.3737863
    },
    {
        "type": "node",
        "id": 8197438118,
        "lat": 33.7546958,
        "lon": -84.3740058
    },
    {
        "type": "node",
        "id": 8197438119,
        "lat": 33.7544198,
        "lon": -84.373792
    },
    {
        "type": "node",
        "id": 8197438147,
        "lat": 33.7545468,
        "lon": -84.3751501
    },
    {
        "type": "node",
        "id": 8197438148,
        "lat": 33.7544366,
        "lon": -84.3751524
    },
    {
        "type": "node",
        "id": 8197438149,
        "lat": 33.7545456,
        "lon": -84.3749891
    },
    {
        "type": "node",
        "id": 8197438150,
        "lat": 33.7544354,
        "lon": -84.3749877
    },
    {
        "type": "node",
        "id": 8197438181,
        "lat": 33.7545903,
        "lon": -84.3724385
    },
    {
        "type": "node",
        "id": 8199154348,
        "lat": 33.7548665,
        "lon": -84.3715333
    },
    {
        "type": "node",
        "id": 8199154377,
        "lat": 33.7549652,
        "lon": -84.3715312
    },
    {
        "type": "node",
        "id": 8199154380,
        "lat": 33.7549617,
        "lon": -84.3716871
    },
    {
        "type": "node",
        "id": 8199154381,
        "lat": 33.755011,
        "lon": -84.3716868
    },
    {
        "type": "node",
        "id": 8199154382,
        "lat": 33.7550111,
        "lon": -84.3717303
    },
    {
        "type": "node",
        "id": 8199154383,
        "lat": 33.7547837,
        "lon": -84.3715355
    },
    {
        "type": "node",
        "id": 8199154384,
        "lat": 33.7548266,
        "lon": -84.3715344
    },
    {
        "type": "node",
        "id": 8199154393,
        "lat": 33.755011,
        "lon": -84.3717077
    },
    {
        "type": "node",
        "id": 8199154394,
        "lat": 33.7548166,
        "lon": -84.3717137
    },
    {
        "type": "node",
        "id": 8202468343,
        "lat": 33.7577493,
        "lon": -84.3721976
    },
    {
        "type": "node",
        "id": 8202468523,
        "lat": 33.7559231,
        "lon": -84.3734491
    },
    {
        "type": "node",
        "id": 8202468524,
        "lat": 33.7559198,
        "lon": -84.3733674
    },
    {
        "type": "node",
        "id": 8228562412,
        "lat": 33.7575675,
        "lon": -84.3722341
    },
    {
        "type": "node",
        "id": 11203957472,
        "lat": 33.7571494,
        "lon": -84.3737042
    },
    {
        "type": "node",
        "id": 11203957473,
        "lat": 33.7570282,
        "lon": -84.3737087
    },
    {
        "type": "node",
        "id": 11203957474,
        "lat": 33.7570183,
        "lon": -84.37343
    },
    {
        "type": "node",
        "id": 11203957475,
        "lat": 33.7571413,
        "lon": -84.373427
    },
    {
        "type": "node",
        "id": 408347380,
        "lat": 33.7592892,
        "lon": -84.3699646
    },
    {
        "type": "node",
        "id": 408347381,
        "lat": 33.7592697,
        "lon": -84.3678894
    },
    {
        "type": "node",
        "id": 4650774036,
        "lat": 33.7555193,
        "lon": -84.3698186
    },
    {
        "type": "node",
        "id": 4650774041,
        "lat": 33.7558564,
        "lon": -84.3689807
    },
    {
        "type": "node",
        "id": 6016005644,
        "lat": 33.7576762,
        "lon": -84.3679237
    },
    {
        "type": "node",
        "id": 6016005646,
        "lat": 33.7576986,
        "lon": -84.3699779
    }
]